{"type":"FeatureCollection","features":[{"type":"Feature","geometry":{"type":"LineString","coordinates":[[-71.06206996901248,42.3611655519888],[-71.06166697478186,42.36103577497249],[-71.06104910950648,42.36083203438141],[-71.06066391304263,42.3607089163765],[-71.06052609278521,42.36065210818031],[-71.06046359063798,42.36060541795597],[-71.06042060868766,42.360546287371555],[-71.06039843527093,42.36044007190054],[-71.06037162428963,42.360381086831126],[-71.06031291161965,42.3602910170124],[-71.06020515897991,42.36015020023714],[-71.06008945585512,42.35998841489047],[-71.05995954402545,42.359802272615326],[-71.059839705174,42.35964938585229],[-71.05973026900782,42.359522808357625],[-71.05966717074654,42.35945283208651],[-71.05955704237245,42.359357602586705],[-71.05945925952693,42.359305271399364],[-71.05937763241158,42.35924860770693],[-71.05927244685668,42.35918348277593],[-71.05916157915757,42.35913475006534],[-71.05891509549315,42.35905608020483],[-71.05877296070128,42.359021470692575],[-71.05820851946231,42.358892662625564],[-71.05763281426766,42.35876734839353],[-71.05752480722212,42.358744304990786],[-71.057454174436,42.35873169383177],[-71.05739184222254,42.35872116543712],[-71.05733085909706,42.358716819096536],[-71.05728477117678,42.35871807945585],[-71.05648549201895,42.35883595304657],[-71.05623280667034,42.3588781742629],[-71.05317833306508,42.359341171020496],[-71.05295272303918,42.35937979273517],[-71.0522842341461,42.35947443003053],[-71.05168873495971,42.35956276056028],[-71.05150055126877,42.359593537034144],[-71.05120141468154,42.359643406691404],[-71.04793862373815,42.36007626395864],[-71.04771332115894,42.360103998403304],[-71.04759047875706,42.360127318941466],[-71.04747075073954,42.36015562030932],[-71.04735592649455,42.36018837928769],[-71.04724702995809,42.360225508992734],[-71.04713584620879,42.360269769797114],[-71.04702480281235,42.36032034568843],[-71.04691459871681,42.36037693062071],[-71.04680616358323,42.360439040301856],[-71.04670266910624,42.36050467778801],[-71.04660835472158,42.36057107430473],[-71.04651768035616,42.360642090084994],[-71.04640309819396,42.36074755026853],[-71.04629283812078,42.36087590468159],[-71.04613509219637,42.36105621375593],[-71.04202242282301,42.36608850295264],[-71.04002497683666,42.36850958869509],[-71.0398173064317,42.368761292932845],[-71.0396870947711,42.3688958063783],[-71.03906581866342,42.36951186069453],[-71.03886435331339,42.36975062657839],[-71.03870442352058,42.36993293586832],[-71.03850320847636,42.370136859105585],[-71.03821956358568,42.370366582004316],[-71.03779395456054,42.37073077276937],[-71.03732089474948,42.37115575040207],[-71.03694878214326,42.37143303037778],[-71.03660660615122,42.371632026249166],[-71.0363119073703,42.37176587399413],[-71.03596430118121,42.371903857766114],[-71.0355874545469,42.37202430454372],[-71.03519336175906,42.37209240780476],[-71.03500509562613,42.372130850923064],[-71.03478261614012,42.37215786574254],[-71.03451721085199,42.37217243729451],[-71.03393514250642,42.372239775440974],[-71.03298244174592,42.37237965801447],[-71.03285898403104,42.37239222442252],[-71.03267461196165,42.372442801043704]]},"properties":{"route":"Bowdoin to Wonderland","grade":7}},{"type":"Feature","geometry":{"type":"LineString","coordinates":[[-71.02637681199029,42.37764327464637],[-71.02637409459491,42.37764553128612],[-71.02521832079529,42.37862237260481]]},"properties":{"route":"Bowdoin to Wonderland","grade":7}},{"type":"Feature","geometry":{"type":"LineString","coordinates":[[-71.03031553858999,42.374290902220444],[-71.02987621549039,42.37468178046031],[-71.0297081484036,42.374828020670954],[-71.02961049382176,42.374900225211164],[-71.02949551428617,42.37497902905138],[-71.02941042873583,42.37504306158802],[-71.02928042637032,42.375159740137],[-71.0290987759062,42.37533563610855],[-71.02890809309002,42.37552800160096],[-71.02876009477355,42.375669367408186],[-71.02860764963047,42.37580906457176],[-71.02837228722395,42.37602105783323],[-71.02800033781214,42.376336494353204],[-71.02776393588766,42.37652878107474],[-71.02759712756585,42.37666335650384],[-71.02744036308549,42.37678487824738],[-71.02726119875446,42.376924459352836],[-71.02710224440689,42.377041015545],[-71.02637681199029,42.37764327464637]]},"properties":{"route":"Bowdoin to Wonderland","grade":1}},{"type":"Feature","geometry":{"type":"LineString","coordinates":[[-71.03043810812838,42.37418184641252],[-71.03031553858999,42.374290902220444]]},"properties":{"route":"Bowdoin to Wonderland","grade":7}},{"type":"Feature","geometry":{"type":"LineString","coordinates":[[-71.03267461196165,42.372442801043704],[-71.0326735814847,42.37244308404963],[-71.03253140986172,42.37249540468257],[-71.03240605475689,42.37255008923689],[-71.0322752892573,42.37261855219231],[-71.03218452516317,42.3726694356816],[-71.0320903481809,42.37273456309997],[-71.03198288639824,42.37281501783579],[-71.03187088662688,42.37290700921742],[-71.03043810812838,42.37418184641252]]},"properties":{"route":"Bowdoin to Wonderland","grade":6}},{"type":"Feature","geometry":{"type":"MultiLineString","coordinates":[[[-71.02521832079529,42.37862237260481],[-71.02521562256182,42.37862465360396],[-71.02514620527099,42.37867719603062],[-71.0249805718608,42.37879207148101],[-71.02485979736866,42.37886420891542],[-71.02464959957199,42.378983851412286],[-71.02441501902506,42.37908853526933],[-71.02412467740763,42.379206194341315],[-71.02211509948086,42.37995229797083],[-71.02191414524253,42.38002575396239],[-71.02170436253144,42.38008926252461],[-71.02155711178897,42.380128268339924],[-71.02143891278702,42.38015253915822],[-71.02133188594979,42.38017190565318],[-71.02119811907885,42.38019446032168],[-71.02105772000802,42.38021038720999],[-71.02088836765328,42.38022783908171],[-71.02071236213413,42.38024031230071],[-71.02044064660966,42.380249085874226],[-71.01857713797483,42.38022479611993],[-71.01844130768492,42.380225877872],[-71.01821856270436,42.38023650139765],[-71.01801801828643,42.38025546774838],[-71.01778401364767,42.38028255455515],[-71.01756996334173,42.380321275267825],[-71.017304747531,42.380382497005336],[-71.01706763046471,42.38044655135742],[-71.01683038637155,42.38052637324469],[-71.0166196865252,42.38061222467285],[-71.0164035283224,42.38071578935905],[-71.01621399579446,42.38081552594344],[-71.01605377785793,42.38090552917122],[-71.01588004164539,42.381025041670966],[-71.01566610347936,42.381185781741834],[-71.01210914643559,42.38382939283389],[-71.01119234868419,42.38451665091995],[-71.0109923387559,42.38465667089574],[-71.01086339537142,42.384737332377924],[-71.01069778246021,42.384835188127006],[-71.01057772992986,42.38490363507798],[-71.01041380306006,42.38498437771109],[-71.01027078118356,42.38504980516452],[-71.01006826129854,42.38513038302908],[-71.00460971391963,42.38691141703555],[-71.0041405381098,42.387069197153785],[-71.00343442987301,42.3873046922621]],[[-71.00343441691393,42.38730634243423],[-71.00178440779587,42.387841601669685],[-71.0013584161408,42.38797934508315],[-71.00084048411651,42.38815547701243],[-71.00052027581025,42.388278952883105],[-71.00028531777818,42.38837306792918],[-70.9997218137393,42.388631054558296],[-70.9994202345289,42.38878856723452],[-70.99906511083992,42.389000882428284],[-70.99878544438438,42.38917757674493],[-70.99861261051527,42.389291461016505],[-70.99844633072114,42.38940287619849],[-70.99825636936033,42.38954273330623],[-70.99799977132942,42.3897354514937],[-70.99786660023274,42.389839174172344],[-70.9977403673965,42.389943774153224],[-70.99762860646841,42.39003777146996],[-70.99750690655273,42.39014787193652],[-70.99733865102762,42.39030776368789],[-70.99703598084358,42.39062494129352],[-70.9968576129289,42.39082227251282],[-70.99677668568664,42.390916399314946],[-70.99670402016426,42.391005993235844],[-70.99658977993978,42.39115331443563],[-70.99643183307755,42.391367494077876],[-70.99633293289531,42.391515486240706],[-70.99597757661843,42.39202920534906],[-70.99516663040495,42.39327904859564],[-70.99488979037814,42.39369446507858],[-70.99339085059445,42.39595660189898],[-70.99274000003051,42.39695169368179],[-70.99227387906045,42.39764607283625],[-70.99217811726479,42.39779347195124],[-70.99208020444478,42.39795304776827],[-70.99200728050108,42.39807311580033],[-70.9919321860641,42.39820689276727],[-70.99187370124044,42.3983209259163],[-70.99180892345403,42.39845017489438],[-70.9917519220381,42.3985783157142],[-70.99169373946003,42.39871177918082],[-70.99160552125784,42.398943024176056],[-70.99154866374575,42.39911040540053],[-70.99150829737557,42.39927176182067],[-70.99146443758805,42.399465409557266],[-70.99144208482852,42.39957930322578],[-70.99143311519559,42.39967222264329],[-70.99141081426369,42.39988851958314],[-70.99139505134883,42.40005912887263],[-70.99139419313423,42.400165802685166],[-70.99139552137115,42.40025571562841],[-70.99139655036508,42.4003837300552],[-70.99141102533692,42.40062914628302],[-70.99142419060693,42.40078159767716],[-70.99195493988685,42.4043301029214],[-70.9920519899457,42.40490216913917],[-70.99214098621631,42.405487576085505],[-70.99245314244135,42.407509305414635],[-70.99260122739558,42.40850332852087],[-70.99264818304061,42.40882942399902],[-70.99268999884954,42.40916372447291],[-70.9927058177052,42.4094099858841],[-70.99270368318155,42.40967594649077],[-70.99269341019867,42.4098647087722],[-70.99267738883447,42.410124855328675],[-70.99264975097039,42.41044277679671],[-70.9926107763279,42.41074485188206],[-70.99254654478725,42.41114862417108],[-70.99248263135702,42.41147258044518],[-70.99241081970597,42.41173867571728],[-70.99233630588716,42.41199443456096],[-70.99225643208287,42.41222331964507],[-70.99215983848865,42.41245213539939],[-70.99206050706896,42.41267473963016],[-70.99191890461236,42.4129549823895],[-70.99154505122817,42.413727685958705]]]},"properties":{"route":"Bowdoin to Wonderland","grade":1}}]}