{"type":"FeatureCollection","features":[{"type":"Feature","properties":{"route":"B C D E","grade":7},"geometry":{"type":"LineString","coordinates":[[-71.07920680181876,42.3495883732371],[-71.07797604990391,42.3499162666713],[-71.07099016638728,42.35177711822454],[-71.07049929849937,42.351910506064954],[-71.06913697563446,42.35226041359095],[-71.06828178413552,42.352446440243675],[-71.06803895719918,42.352498703174746],[-71.06780679815499,42.352532236411555],[-71.06739751862794,42.352566669512086],[-71.06709012332274,42.35258055387707],[-71.06698202701016,42.35258543430047],[-71.066739561393,42.3525845210345],[-71.0660417338375,42.352574071626634],[-71.0656539043739,42.35255540464791],[-71.0651860173484,42.35252704903891],[-71.0650278668196,42.352529581253734],[-71.06496725683176,42.35253584128121],[-71.06492232837647,42.352546383875996],[-71.06486617453763,42.352563521827975],[-71.06483977831554,42.35257399586877],[-71.06481833314848,42.352582866314535],[-71.06479961184608,42.35259418145345],[-71.06478086533134,42.352609160680736],[-71.06476595300785,42.352624153516444],[-71.06475088984986,42.352641133623116],[-71.06473385444227,42.352666739159],[-71.06472098442558,42.3526973210659],[-71.06468451150415,42.3527894556904],[-71.06460273269842,42.35302998758857],[-71.06455758344529,42.353156493957755],[-71.06452980621177,42.35320955999119],[-71.06446814567423,42.35328439638536],[-71.06427056613325,42.35350103139809],[-71.06420004093795,42.35363838990853],[-71.06414237829249,42.35374451739899],[-71.06406339902001,42.35388496868929],[-71.06386655291195,42.35430022444948],[-71.0637404043322,42.35455309693975],[-71.06366333488079,42.35472170999117],[-71.06350587469605,42.3550693540924],[-71.06343590526782,42.35518495777221],[-71.06334750139224,42.3553095177331],[-71.06316702626002,42.35551758734427],[-71.06303185665044,42.35564649066922],[-71.06224554601097,42.35631431523648],[-71.06191881102689,42.356542340070256],[-71.06170710107452,42.356734868193826],[-71.06151944478836,42.35692038074114],[-71.0613531817789,42.35706384996708],[-71.06111514902013,42.35728514171516],[-71.06089036840729,42.35749179352021],[-71.06061529318072,42.357781846542075],[-71.06038436027254,42.358038721772225],[-71.06024187818552,42.3582081285261],[-71.06004940929142,42.35842549503742],[-71.0598607417695,42.35864571078472],[-71.05967943453746,42.358905604997446],[-71.05955684801616,42.3591555505285],[-71.05945925952693,42.359305271399364]]}},{"type":"Feature","properties":{"route":"D E","grade":7},"geometry":{"type":"LineString","coordinates":[[-71.05945925952693,42.359305271399364],[-71.05942961996908,42.35935074047206],[-71.05927314682496,42.35957453566926],[-71.05905315965731,42.359882463274076],[-71.05896515441057,42.360005992290304],[-71.05889180534244,42.36011162745976],[-71.05881603190099,42.360217254181116],[-71.05875736438827,42.3602996073519],[-71.05850713077811,42.360583905852394],[-71.0581649602783,42.3609657509128],[-71.05807076170034,42.361068811642276],[-71.05802979567069,42.361116869269665],[-71.05799861810873,42.361158935256846],[-71.05797552786288,42.36120706246196],[-71.05795732470176,42.36125399935571],[-71.05793245371689,42.36132381580196],[-71.0579156111075,42.36140812806514],[-71.05790893099349,42.3614897407054],[-71.05790293534879,42.36234763113329],[-71.0579019038422,42.36249522251636],[-71.0579135668946,42.362605964305004],[-71.05816433572278,42.36321115750672],[-71.05819911262871,42.363286729986086],[-71.05825031282735,42.36336830654555],[-71.05834538437294,42.36348684099502],[-71.05846915987772,42.36361872791799],[-71.05867451015686,42.363816630883086],[-71.05884730305279,42.36397791175402],[-71.05893202949908,42.36406341039957],[-71.05904614877743,42.364168487733096],[-71.05937692445696,42.364464965743956],[-71.06063477803357,42.365693156495745],[-71.06104591020214,42.366138951426926],[-71.06113450011884,42.366229081613255],[-71.06124201410248,42.36634763762135],[-71.06130524533656,42.36641876306355],[-71.06135839599479,42.36646914067839],[-71.06145386969403,42.36652400193009],[-71.06155583263636,42.36656466867319],[-71.06169276523617,42.36657654320341],[-71.06181583630418,42.366563841792946],[-71.06190100871464,42.36655482933706],[-71.06202146247273,42.36652771671542],[-71.06211013512976,42.366489029503946],[-71.06223860153756,42.36643293804812],[-71.06344899029878,42.365904354795944],[-71.06383393414632,42.3658052078853],[-71.0639695115174,42.36577028835283],[-71.06413025813187,42.365761747080725],[-71.06433531278684,42.365750210704725],[-71.06466799558228,42.36576520334836],[-71.06487459813101,42.365790535102114],[-71.06490071315508,42.36579738606088]]}},{"type":"Feature","properties":{"route":"B C D","grade":7},"geometry":{"type":"LineString","coordinates":[[-71.09408537136477,42.34897911439789],[-71.0939415668114,42.34899080111239],[-71.0937739646358,42.34899086365095],[-71.09373264787091,42.348990880634766],[-71.09350934904525,42.348963379851405],[-71.09340582787698,42.348947166033014],[-71.09326818952528,42.348888512376],[-71.09316499125477,42.34883928671539],[-71.0930775072786,42.34878546116762],[-71.0929462053445,42.348717517835],[-71.09280868770642,42.34864025053369],[-71.09259928147978,42.3485231705026],[-71.09233356538893,42.34838262064069],[-71.09222415283106,42.348324065784496],[-71.09206581502451,42.34824453423841],[-71.09190213003446,42.34816464228379],[-71.09173458217018,42.3480932369268],[-71.09163972178801,42.3480637774661],[-71.09156030041247,42.34804658251606],[-71.09146065470547,42.348034594964666],[-71.09134168871583,42.348029525824714],[-71.09058175016315,42.34803815269588],[-71.08943983291194,42.34806807166023],[-71.0888249388854,42.348085704361026],[-71.08840875020219,42.348081380369514],[-71.08814915212136,42.34807195570881],[-71.08798893148375,42.348048721400964],[-71.08602350896261,42.34788020582282],[-71.08589930793062,42.34787661028702],[-71.08581204231234,42.347879748603],[-71.08573177212071,42.347880321016895],[-71.08566077670207,42.3478861034714],[-71.08560838566021,42.34789281991112],[-71.08546165437747,42.34791731552645],[-71.08505647230481,42.348026846528725],[-71.08455912229367,42.348157020837924],[-71.07920680181876,42.3495883732371]]}},{"type":"Feature","properties":{"route":"B - Boston College","grade":2},"geometry":{"type":"LineString","coordinates":[[-71.16702558879477,42.340164104802575],[-71.16685320610094,42.340107972961846],[-71.16658147919411,42.3400402604801],[-71.16642550416435,42.3400128749967],[-71.1662984914584,42.34000038312496],[-71.16615691542056,42.339995929823246],[-71.16603345192173,42.339999613558646],[-71.16582540027748,42.34002002358667],[-71.1656429212069,42.34004292308609],[-71.16529784133654,42.34007289528273],[-71.16500364710674,42.34009358779145],[-71.16464154418162,42.340114016667975],[-71.16417246195638,42.34012937574746],[-71.16373811127484,42.34013568395728],[-71.16332603815496,42.3401331320953],[-71.1625564305351,42.340112018426225],[-71.16091740606343,42.340065448013604],[-71.16050719107295,42.3400548069271],[-71.16024950095489,42.34003788463171],[-71.16001178757907,42.34001967490075],[-71.15978153952065,42.33999521805266],[-71.15957375462794,42.33997242707145],[-71.15933479752613,42.339940748425875],[-71.1590775037562,42.33990243199379],[-71.15881453185065,42.33985586138501],[-71.15858060778822,42.33980803050352],[-71.15835576105823,42.33976022071676],[-71.15804614616687,42.33968427642841],[-71.15780282333975,42.339622550642694],[-71.15746207021989,42.33952322519806],[-71.1571612188503,42.33943209332908],[-71.15692566599135,42.33935058157155],[-71.15662306907197,42.33924597384122],[-71.15640390101407,42.33915643434147],[-71.15618655021582,42.33906554941984],[-71.15592202601037,42.338949074420356],[-71.1557066666087,42.33884862446079],[-71.15501379716287,42.338505989386256],[-71.15449168853429,42.33827933189974],[-71.15430512706592,42.33820335018557],[-71.15413659805253,42.33814897266025],[-71.15400426573275,42.33811490183465],[-71.15387190526819,42.33808622440983],[-71.15370501168634,42.338065518424216],[-71.15358889490129,42.33805439664171],[-71.15344911610357,42.338053975392256],[-71.15336013613958,42.338059090881444],[-71.15326384060572,42.338074960712824],[-71.15319654750735,42.33809765392413],[-71.1531273724798,42.33813380885934],[-71.15303625331659,42.33819818194731],[-71.15293227266237,42.33829079515245],[-71.1528520070393,42.33836193052639],[-71.15275338815127,42.338469380334125],[-71.15266202420597,42.338578192506084],[-71.15258338588073,42.3386843502909],[-71.15253209978323,42.338767696311116],[-71.15247513455215,42.33889277339292],[-71.15237226321844,42.339113339559816],[-71.15227324883264,42.339293505973885],[-71.15220917397451,42.339391628334155],[-71.15212501999245,42.3395085464784],[-71.1520591601464,42.33960127421523],[-71.15197322713482,42.339712798625506],[-71.15187092446327,42.33982965803868],[-71.1517376336815,42.33996932237121],[-71.15162811803528,42.340076732780076],[-71.15149856705335,42.34019620475785],[-71.15137091004206,42.34030221399486],[-71.15121590894029,42.34042833904389],[-71.15110649555908,42.34051689629137],[-71.15094611643487,42.340630885852875],[-71.15080763458914,42.34072339236031],[-71.15066188684078,42.34081722795874],[-71.15053619758476,42.34089495783772],[-71.150383223338,42.34098203604898],[-71.15026490070605,42.34103958552883],[-71.15012295096365,42.34110380165898],[-71.14990457304889,42.341198755784944],[-71.14971355373346,42.341272248017354],[-71.14956621403041,42.34132432463758],[-71.14943165293722,42.341364316731315],[-71.14927165940729,42.34140692745749],[-71.14904082606303,42.341457401846895],[-71.14885729355876,42.34148916277432],[-71.14864110779916,42.341516786728015],[-71.14845402129113,42.341535067817134],[-71.14827062927604,42.3415412411039],[-71.14810181195274,42.34153803267323],[-71.14797657393126,42.341533606996116],[-71.14773881349086,42.34152345185908],[-71.14740662656695,42.34151704539277],[-71.14716701450129,42.34151361846242],[-71.14697093932548,42.34151570845272],[-71.14672397554557,42.341527072294475],[-71.14649691866474,42.34155061651491],[-71.14627347621598,42.34157686687509],[-71.1461026687648,42.34160597069162],[-71.14596638253471,42.34162844638987],[-71.14579373918022,42.341661582795055],[-71.14561213734392,42.341708560293995],[-71.14546282899126,42.34175079803258],[-71.14525548405292,42.34182019022668],[-71.14501191723514,42.341905875299226],[-71.14484616114414,42.34197245930844],[-71.14464046265175,42.3420714849179],[-71.14455309990609,42.34211162167824],[-71.14444202653029,42.34217053801956],[-71.14431635873045,42.34224152700666],[-71.14412327194987,42.34235809863934],[-71.14398661331971,42.342446564782136],[-71.14387174356743,42.34253509825247],[-71.14376047927657,42.34262768057779],[-71.14366380274916,42.34270953603905],[-71.14354333149468,42.34282498488567],[-71.1434556958072,42.342905498857846],[-71.14337535095568,42.342995508224455],[-71.14326938336052,42.343115044065335],[-71.14320174599267,42.34319698472495],[-71.14311763836696,42.34330311992299],[-71.14306272906299,42.34338241264012],[-71.14297120458433,42.343515457766856],[-71.14272772692418,42.34387295009776],[-71.14261424877458,42.34403555614072],[-71.14234510985234,42.344436062924444],[-71.14181968829156,42.34520882928827],[-71.14151213799427,42.34565769586574],[-71.14121745179031,42.34610330667211],[-71.14115131551634,42.34621548878546],[-71.14105600901665,42.34637411214574],[-71.14099360812212,42.346492435892465],[-71.1409403332236,42.34660270350499],[-71.14089439847406,42.34669818425978],[-71.14084660298745,42.34680308520895],[-71.14081347373008,42.34688243943499],[-71.14077660128103,42.34698064031027],[-71.1407432347788,42.347101746474735],[-71.14071716394257,42.347216141261434],[-71.14068715673177,42.347385741160366],[-71.14063438692129,42.347726313091904],[-71.14061553342621,42.347848811389795],[-71.14059686345486,42.347938988085936],[-71.14057652558053,42.34800357245574],[-71.14053782240335,42.34810445937449],[-71.14050544218622,42.348184230867155],[-71.14045870924173,42.34828871991513],[-71.14042013700497,42.34836671645693],[-71.14037794229223,42.34844335032221],[-71.14031942378938,42.3485320888101],[-71.14027359057376,42.34859521052443],[-71.14023703793126,42.34863684435631],[-71.1401877793463,42.34867844292022],[-71.14011853814085,42.34872267078787],[-71.14002564503329,42.348774904664495],[-71.13993643430845,42.34881771947266],[-71.13983270954444,42.34885914732167],[-71.13972719967484,42.34889518125656],[-71.13961082928384,42.34892444599754],[-71.13951630519404,42.34894434858592],[-71.13939818923888,42.34896148975422],[-71.13929464050437,42.34897193693657],[-71.13919071115075,42.34897803713802],[-71.13910033333279,42.348978062317016],[-71.1389678262896,42.34897225723218],[-71.13884262028819,42.34895974616815],[-71.13870480072335,42.34893102975247],[-71.1385996609764,42.348901069053476],[-71.13850542128992,42.34887114342554],[-71.13701761203163,42.34838026723779],[-71.13686355068258,42.34833399031535],[-71.13671489370535,42.348295810352745],[-71.13660243762385,42.34827659755956],[-71.1364463999014,42.34825859730703],[-71.13623948222958,42.34824717095816],[-71.13607607372296,42.34824799983616],[-71.1358817219643,42.34826219972511],[-71.135739997787,42.348280602907906],[-71.13558914710667,42.34830840932118],[-71.13544912196545,42.34834702181547],[-71.13534542488038,42.34838305658586],[-71.13524898488562,42.34842046111535],[-71.13509246076876,42.34848595838479],[-71.13438426399573,42.348819057423945],[-71.13299508428865,42.349485330174986],[-71.13242888342101,42.349750184540696],[-71.13187903758738,42.35001105068144],[-71.13126361658077,42.35030806299785],[-71.13102111945513,42.350414350183705],[-71.1308266070068,42.3505038357815],[-71.13065258448579,42.3505685154875],[-71.13046058345068,42.35062142800049],[-71.13033020829229,42.35064580380481],[-71.13014850146563,42.3506694606965],[-71.12999413361524,42.35067569825691],[-71.12971614361294,42.35066085526993],[-71.12932161028613,42.35062720707933],[-71.12890525100397,42.350587342629126],[-71.12873283565929,42.35057466820494],[-71.12858763335286,42.35056611921595],[-71.12843697366812,42.3505588974412],[-71.12822634184177,42.35056090851701],[-71.12810832880918,42.350560526915814],[-71.12792305577585,42.3505733968035],[-71.12767413571767,42.350602220517054],[-71.1274396482899,42.350647251538966],[-71.12724145196476,42.35069643842613],[-71.12705046563617,42.350753732050016],[-71.12682302796222,42.350835149148544],[-71.12660960276168,42.35093128330576],[-71.12642793964125,42.35101972015265],[-71.12626299766836,42.35111246672422],[-71.12594216694409,42.3512971072231],[-71.12573144298918,42.3514297732538],[-71.12537637510187,42.351680267595036],[-71.12502253388062,42.35194981494491],[-71.12486749961158,42.35206782781036],[-71.12479811172481,42.352096895028744],[-71.12472555599129,42.35212123615507],[-71.12462875881357,42.35213314434654],[-71.12451304834953,42.35213266484868],[-71.12441867460088,42.35212562249655],[-71.12408993524642,42.35210294411203],[-71.10812740192928,42.35018306353663],[-71.10418136439517,42.34969951945815],[-71.10253206682377,42.34949491219485],[-71.10220286469747,42.34945345071819],[-71.10092732190304,42.3493004254813],[-71.10050249869865,42.34925692118319],[-71.09982980494631,42.34918129578981],[-71.09839374453442,42.34901817930763],[-71.09839374089916,42.3490181783946]]}},{"type":"Feature","properties":{"route":"D - Riverside","grade":1},"geometry":{"type":"LineString","coordinates":[[-71.25255499300016,42.33740707099718],[-71.25204421802447,42.33720808210714],[-71.25193096048035,42.337156151422576],[-71.25175214897803,42.33707158774531],[-71.248301537962,42.335348075892384],[-71.24708977587355,42.33474731965662],[-71.24547283312849,42.333938909427225],[-71.24275548433384,42.332586042236315],[-71.2419569945654,42.332186998809824],[-71.24140479921496,42.33191403394918],[-71.24069767829165,42.331565398949614],[-71.24024087442024,42.33132956078673],[-71.23969662185321,42.331063985247795],[-71.23857642704198,42.33049879181949],[-71.23787728219865,42.33015311217939],[-71.23640247903887,42.329414674849616],[-71.23513445898077,42.32878375560237],[-71.23487427827598,42.32865467558487],[-71.23459620049562,42.328522604306045],[-71.23432215669155,42.32837872267733],[-71.23408985209811,42.32824823061631],[-71.2339131824896,42.328138540214056],[-71.23375438022842,42.328040704514954],[-71.23354795609735,42.32790879210925],[-71.23337132691142,42.32779024120993],[-71.23317488068417,42.32765096619463],[-71.23282762607188,42.327407968309934],[-71.23206570689938,42.32686274154458],[-71.2315835350199,42.326523432819435],[-71.23091822124894,42.32604501736051],[-71.23069406424847,42.325886378149505],[-71.23039942659375,42.32567467848881],[-71.23014503530878,42.32550108818384],[-71.22997755307874,42.32539063355214],[-71.22980962243544,42.32528617084739],[-71.22962451327527,42.32518135418686],[-71.22948799323638,42.32510524388778],[-71.22933511129622,42.325022185173616],[-71.22915638953548,42.324931681193505],[-71.22897292204642,42.32484261701001],[-71.22879030375151,42.32475991688316],[-71.22722198574843,42.324014455937736],[-71.22237821993474,42.32172862165758],[-71.21790023343247,42.31960444183284],[-71.21622625187537,42.318816150093824],[-71.2155332734624,42.3184821610415],[-71.21528507263993,42.31836340570209],[-71.21512422847267,42.31828769235002],[-71.21499116949278,42.31822976721484],[-71.21483027946157,42.31816438778149],[-71.214697207693,42.31810941702866],[-71.214514431815,42.318043987321154],[-71.21433761136154,42.31798152237918],[-71.21417268189944,42.31793090126398],[-71.21399580872102,42.31788025019014],[-71.21378511822714,42.31782803995507],[-71.21364793195126,42.31780259000317],[-71.21346699922474,42.317769651141404],[-71.21331188689241,42.31774859093251],[-71.21314284371377,42.317727491243595],[-71.21299167336406,42.31771382463371],[-71.21284508017052,42.317707355389864],[-71.21268909491195,42.31770069682708],[-71.21249029964265,42.31769780222335],[-71.21224750597779,42.317703104119076],[-71.212106184155,42.31771308465822],[-71.21196485741491,42.317723069512766],[-71.21178569026446,42.31774034440164],[-71.2116423275478,42.31775918262576],[-71.21150492138327,42.31778246685944],[-71.21131770310997,42.317820388809054],[-71.21110656348857,42.317867114601164],[-71.21093124835559,42.317910980758114],[-71.21071671863683,42.317974987412434],[-71.21054663825424,42.31803406308459],[-71.21039915181433,42.318085378204415],[-71.21026158227117,42.31814410142843],[-71.21016587953416,42.31818521233109],[-71.21003825928656,42.31824396127724],[-71.20990262195865,42.318314503475094],[-71.20979090580944,42.318376247045514],[-71.20965922098726,42.31845270394927],[-71.20952552166546,42.31853506962702],[-71.20943968146297,42.31859392349149],[-71.20932188067682,42.31868075405665],[-71.20919012122258,42.31877345869734],[-71.20910038451476,42.318850122822035],[-71.20899433842298,42.318941315903686],[-71.20877849858195,42.319143089058734],[-71.20725724667075,42.320639632379546],[-71.2052454342361,42.32261515774811],[-71.20510421936302,42.32275035596583],[-71.20498229933982,42.322863758869964],[-71.20486240051397,42.32296977814419],[-71.20476848252437,42.323052235888454],[-71.20464863160265,42.3231493952961],[-71.20451476502016,42.32326276339957],[-71.20439897044733,42.32334221434466],[-71.20422731395146,42.32345252926402],[-71.20386648963353,42.32366757372602],[-71.20361187892145,42.32379408357802],[-71.20324478915725,42.32397600893032],[-71.20115911905253,42.325038038864484],[-71.1996214328477,42.32581950574147],[-71.19887892180627,42.32619431487671],[-71.19849390731915,42.326386761894604],[-71.196071933156,42.32762235882332],[-71.19421063618978,42.32854336225894],[-71.19356025549659,42.328867996381106],[-71.19329889976835,42.32899873455404],[-71.19315166998705,42.3290735221877],[-71.19284806211711,42.32921461871864],[-71.19264860293278,42.329304168645486],[-71.19245512575957,42.32939077947763],[-71.19228762341626,42.32945678615122],[-71.19203238904552,42.32955652552784],[-71.19173131958303,42.32966795504136],[-71.19145818221409,42.32976468947894],[-71.19122894149876,42.32983791306596],[-71.19100767284729,42.329909678448054],[-71.19084823878636,42.32995355126916],[-71.19069679146133,42.32999154125567],[-71.19037397749577,42.33007189640848],[-71.19000342593581,42.33014621152692],[-71.18968270028661,42.33020589700676],[-71.18942177189031,42.330246539073116],[-71.18913497645329,42.33028711510169],[-71.1888900350458,42.33031451090929],[-71.18862121413856,42.330341840615255],[-71.18836436958914,42.330361823381686],[-71.18816725773455,42.330377532793705],[-71.187978125776,42.33038883319949],[-71.18775715627883,42.33039857214571],[-71.18760588099619,42.330401111401876],[-71.18736106855806,42.330403400609555],[-71.18715008826564,42.33040578137482],[-71.18690532087244,42.33039773080053],[-71.18663867016718,42.33038814447847],[-71.1864040928179,42.33037096556101],[-71.18619101015211,42.33035738568542],[-71.18589855043611,42.330335913578125],[-71.18561608050386,42.33030560378782],[-71.18534758124663,42.33026795186306],[-71.18503337744505,42.33021540482807],[-71.1846873540588,42.33015833572733],[-71.18419275959542,42.3300686001112],[-71.18368125386203,42.32996359101499],[-71.16934997208934,42.327179402988754],[-71.16846724342557,42.32700555293728],[-71.16762029011745,42.32684213938949],[-71.16737173562528,42.326800068210204],[-71.16712914237503,42.32676096941298],[-71.16695215008298,42.32673535300037],[-71.1668029693701,42.32672015138455],[-71.16666372542082,42.326707934048855],[-71.16642897389015,42.32669100909223],[-71.16628769656921,42.32668616959369],[-71.16609669229157,42.326676755148455],[-71.16590564304656,42.32667472084778],[-71.16574842827079,42.326674263799426],[-71.165545417285,42.32667662715379],[-71.16537622564972,42.32668204426381],[-71.16521912677375,42.32669017921494],[-71.16472516099614,42.32673478853609],[-71.1645220227872,42.32676225345269],[-71.1643626818641,42.3267854164661],[-71.16422723209834,42.3268086499494],[-71.16413360029793,42.326826095051636],[-71.16396825068516,42.326856624156385],[-71.16378494327941,42.32689744035284],[-71.16362435086104,42.32693407245233],[-71.16322719663249,42.32704037921881],[-71.16305349299738,42.32709613842301],[-71.16284357990874,42.327168108956],[-71.16264074082096,42.32724260718027],[-71.16241333385322,42.32733002681093],[-71.16209048784644,42.32747143777221],[-71.161814471169,42.32761298110776],[-71.16151540881317,42.32777980363866],[-71.16124392769824,42.32793258739785],[-71.16106024558381,42.328041327869244],[-71.16042721307495,42.328439669908875],[-71.1592928231713,42.329111271896394],[-71.15872999364817,42.32946543723899],[-71.15728429233523,42.33034425025372],[-71.15625551341694,42.330970337374374],[-71.15283310813123,42.333052600888756],[-71.15124345043228,42.334019511381015],[-71.15099983778127,42.33416202099627],[-71.15073629390561,42.33430889987575],[-71.15052669148075,42.3344190194029],[-71.15032910068811,42.33451736146391],[-71.15011355959238,42.33462155806543],[-71.14996393473751,42.33468312723792],[-71.14976048551547,42.33476077710116],[-71.14963882746935,42.334804712422084],[-71.14951120144515,42.33484715024175],[-71.14929584400562,42.33491885346801],[-71.14901486336238,42.335006876301094],[-71.14886917041913,42.33504898636089],[-71.14867585475369,42.33509269727763],[-71.14851644391948,42.335124697915035],[-71.14832517398152,42.33515808005703],[-71.14813396617949,42.335181123129594],[-71.14777949706261,42.33521252557235],[-71.14695309443397,42.335279400449565],[-71.14662620425656,42.33531927294082],[-71.14586338612887,42.33544735624488],[-71.14526572292348,42.335541506280514],[-71.14501269353381,42.33558502677716],[-71.14473373672661,42.335637330864714],[-71.14455837519537,42.3356737061601],[-71.14440485734646,42.335719013020345],[-71.14425525755719,42.3357746662408],[-71.14407179533909,42.335836123945086],[-71.14395019777184,42.33586823442083],[-71.14371903375118,42.3359162546231],[-71.14347201343705,42.33595240616818],[-71.1432489324711,42.33597829703127],[-71.1430557660618,42.3359954205802],[-71.14282680521701,42.336005044816055],[-71.14259190880276,42.3360087487356],[-71.14237695683622,42.33600660110645],[-71.14219584937588,42.336001607259654],[-71.14200680937374,42.335992158994166],[-71.14177598616847,42.33597962637645],[-71.14157705007105,42.33596128320172],[-71.14137015026988,42.335941439262875],[-71.14111955408055,42.335906694680155],[-71.14092072964132,42.335867676430105],[-71.14073385386705,42.335827220498324],[-71.14053111943166,42.33577637573218],[-71.14036814952188,42.335733039193514],[-71.14017738444834,42.33567632173073],[-71.13996679649375,42.33560625717435],[-71.13982178785412,42.335554111836736],[-71.13962516917928,42.3354781818026],[-71.13946755698608,42.335410734767635],[-71.13928367914205,42.335326476791614],[-71.13904130315606,42.335198461660525],[-71.13866853689548,42.33499522475019],[-71.13803775542885,42.334634875828584],[-71.13734332052283,42.33422903344183],[-71.13693068604736,42.33398996847753],[-71.13621056556964,42.333574193332815],[-71.13496352607127,42.332846517255376],[-71.13472079403559,42.332707028339726],[-71.13452037012397,42.33260301798617],[-71.13433580395117,42.3325093930742],[-71.1341750451017,42.332430612917854],[-71.1340261516602,42.332363683942425],[-71.1338851814952,42.33230415970122],[-71.13374022564147,42.33224610716894],[-71.1335952481252,42.33219100374058],[-71.13341646351421,42.33213136288954],[-71.13324358901467,42.33208207596925],[-71.13304485728607,42.33202975509397],[-71.13283129208152,42.33197938244526],[-71.13262543258024,42.33193833224281],[-71.13243853085328,42.33190524235217],[-71.13214423345389,42.331858523834995],[-71.13181608771167,42.33181464641679],[-71.13150582675836,42.33177525572967],[-71.13115377763812,42.33173425455256],[-71.13031054137797,42.331651137174745],[-71.12825354476847,42.33145206706082],[-71.12708390392596,42.331338636592534],[-71.12631609412108,42.3312623039661],[-71.125930213862,42.3312211767891],[-71.1258009284,42.33120746229664],[-71.12568353360624,42.33120117507993],[-71.12555817187601,42.33119633737308],[-71.12539297315206,42.33119727384003],[-71.12522773942457,42.33120412037773],[-71.12505079442879,42.33121218618942],[-71.12486336598664,42.33122803476124],[-71.12450881985819,42.33127413359599],[-71.1243514476659,42.33129724763652],[-71.12417812646727,42.33132474416406],[-71.12393109536136,42.33136380846079],[-71.12365527352492,42.331392650581925],[-71.12330663695528,42.33142245715528],[-71.1230369949812,42.3314391496864],[-71.12278210218047,42.33145039009503],[-71.12243411858903,42.33146010793201],[-71.12199585593642,42.331474127489805],[-71.12063741426617,42.331521154757674],[-71.12013648039098,42.33154331331275],[-71.11985571967944,42.33156453873407],[-71.11964855828604,42.33159191112886],[-71.1194592922835,42.331623772732726],[-71.11927992012346,42.33166305099575],[-71.11905470300142,42.33171547079364],[-71.11881108579543,42.33177901167843],[-71.11860696148747,42.331840212675665],[-71.11837861148265,42.33194213146896],[-71.11810726683301,42.332051987117076],[-71.11783786289779,42.33216923367999],[-71.11746603562024,42.332330472860534],[-71.1168942777871,42.332573337809905],[-71.1165786362364,42.33271735958792],[-71.11635415751793,42.33281911711848],[-71.11617643914688,42.332909741570084],[-71.11596576482147,42.33301953182971],[-71.11571615046049,42.333154562695526],[-71.11551840478843,42.33326908857827],[-71.11537056353401,42.33336015741522],[-71.11535643522514,42.333368465762305]]}},{"type":"Feature","properties":{"route":"D - Riverside","grade":1},"geometry":{"type":"LineString","coordinates":[[-71.11375970699093,42.33466503191498],[-71.11355984380126,42.3348883053568],[-71.1134436335456,42.33502984129599],[-71.11331106339296,42.335203136627875],[-71.11316457475475,42.33542024902384],[-71.11303998925604,42.335613290907865],[-71.1128468893435,42.335943436158885],[-71.112699995274,42.3362028576168],[-71.1125852189197,42.33641808012303],[-71.11252877545377,42.336534556092104],[-71.11213806593713,42.33727753817489],[-71.1118319679572,42.33785540287732],[-71.11174935003535,42.33801904639383],[-71.11167475000407,42.33817385805446],[-71.11158391832628,42.338378825914596],[-71.11149503570023,42.338591179975666],[-71.11143616400882,42.33876966377451],[-71.11139539421173,42.33893345834071],[-71.11132414903106,42.339190177927975],[-71.11123656257087,42.339514772824614],[-71.11115327852421,42.33978621635488],[-71.11110249245633,42.3399529217637],[-71.11103861076111,42.340118279219794],[-71.11097722295764,42.34025376079108],[-71.110892565348,42.34042478181593],[-71.11081207286621,42.34056628370542],[-71.11072557990185,42.340712190152686],[-71.11064518665582,42.34083744379201],[-71.11052560677797,42.34101985108889],[-71.11042229598348,42.34115124434503],[-71.11033201072345,42.341266125291064],[-71.11021373161128,42.34140158915919],[-71.110060562979,42.34155822107283],[-71.10995804823446,42.34165703325329],[-71.10970111587386,42.34189014350337],[-71.10951433955603,42.3420484260627],[-71.1093968156871,42.342142410716534],[-71.10917051572228,42.34230932187221],[-71.10890107881931,42.342491840055175],[-71.10832984026052,42.34284550883328],[-71.1077720454588,42.34319643602857],[-71.10717295422893,42.34357867470543],[-71.1067634688712,42.343837236760066],[-71.10619229384318,42.344206650209344],[-71.10592726252153,42.34438041396019],[-71.10549760111532,42.344646236116986],[-71.10510927778434,42.34488602988264],[-71.10483582722233,42.345038706189285],[-71.10285047461134,42.346144919112916],[-71.10280244577135,42.34617569081109]]}},{"type":"Feature","properties":{"route":"D - Riverside","grade":7},"geometry":{"type":"LineString","coordinates":[[-71.11535643522514,42.333368465762305],[-71.11522002168591,42.33344869080103],[-71.11508087654987,42.33353787524862],[-71.11494899312792,42.33362308655008],[-71.11480157761964,42.3337254727604],[-71.11469913147043,42.33379798654417],[-71.11461224865657,42.33385907097701],[-71.11449520225732,42.33394793716643],[-71.11437515790671,42.334049431489504],[-71.11427106342333,42.33414655066378],[-71.11413806762036,42.33427410977001],[-71.11375970943425,42.33466502922231],[-71.11375970699093,42.33466503191498]]}},{"type":"Feature","properties":{"route":"D - Riverside","grade":7},"geometry":{"type":"LineString","coordinates":[[-71.10280244577135,42.34617569081109],[-71.10271577562926,42.34623121842817],[-71.10259457427065,42.34635290515625],[-71.10251962120736,42.34644421376909],[-71.10240217295764,42.346623250090325],[-71.10230867503894,42.3468075737062],[-71.10219593757681,42.34696952057425],[-71.10203342361329,42.34717026414831],[-71.10189086936833,42.34732439111707],[-71.10170949961118,42.347449104207776],[-71.10159412149768,42.347509001474144],[-71.1015307530118,42.34753528645604],[-71.10140114355944,42.34758528323004]]}},{"type":"Feature","properties":{"route":"C - Cleveland Circle","grade":7},"geometry":{"type":"LineString","coordinates":[[-71.1055188577239,42.3464953193514],[-71.10161558263842,42.34753196212176],[-71.10140114355944,42.34758528323004]]}},{"type":"Feature","properties":{"route":"B - Boston College","grade":7},"geometry":{"type":"LineString","coordinates":[[-71.09839374089916,42.3490181783946],[-71.09764929657189,42.34893082620664],[-71.09732551888425,42.34889577618878],[-71.09700880957121,42.34886919385636],[-71.09662456597607,42.34885780744674],[-71.09408537136477,42.34897911439789]]}},{"type":"Feature","properties":{"route":"E - Heath Street","grade":3},"geometry":{"type":"LineString","coordinates":[[-71.11028162318509,42.328319950149144],[-71.1102049554435,42.32835491600244],[-71.11018433578704,42.32837435815307],[-71.1101588294927,42.32840868179359],[-71.11014375817847,42.32846023913599],[-71.11014974459016,42.32851500181733],[-71.11018521869812,42.32857298941852],[-71.11023825555905,42.32862977884774],[-71.11058796393229,42.32888871371746],[-71.11064184250118,42.32893007746898],[-71.11069490896666,42.32897822395954],[-71.11074307318047,42.329028432603295],[-71.11079018131014,42.32908998135333],[-71.11082666205706,42.32914601311516],[-71.11102655014815,42.32954550452471],[-71.11125935887088,42.33007648133234],[-71.11175988943403,42.33129025517334],[-71.11196134645171,42.331780459983165],[-71.11197785102755,42.33183838384582],[-71.11198384895535,42.331891579013785],[-71.11197945524744,42.33192128196463],[-71.11196659642265,42.33195564326873],[-71.11195590024293,42.33198063261596],[-71.11193678101777,42.3320055935287],[-71.11189860592519,42.332042999681406],[-71.11185203530499,42.33207568514618],[-71.11151752955988,42.33228857833607],[-71.1111980416282,42.33250982384717],[-71.11098857950792,42.33263736110055],[-71.11080035973633,42.332738381532174],[-71.11066078628019,42.332811416952524],[-71.11048318769876,42.33289840035302],[-71.11028652627132,42.333000954248845],[-71.11000552937145,42.33310635205503],[-71.10982396695698,42.333152655649364],[-71.10961719483018,42.333184796368926],[-71.10935543450147,42.33321193330684],[-71.10910258914912,42.33322996828963],[-71.10891070626383,42.333240263236874],[-71.10877999268149,42.33324451080828],[-71.10782931291685,42.33324752685973],[-71.10708236880727,42.333248636025395],[-71.10689708955442,42.33325588018301],[-71.10673726095023,42.33327351316408],[-71.1066359287094,42.3332981874263],[-71.10652825403778,42.333325973812286],[-71.10642684502248,42.33336316170418],[-71.10633390408414,42.333394123267226],[-71.10620652870938,42.33344877056016],[-71.10612969419908,42.33348733338742],[-71.10564627531058,42.33375407333822],[-71.1055387336554,42.33381210730706],[-71.10537167199436,42.3338975515697],[-71.10524903496918,42.333958128093485],[-71.10510740576055,42.334021764167595],[-71.10495733223148,42.33408849686839],[-71.10479883638467,42.334152074602535],[-71.10468050519343,42.33419858833774],[-71.10456849251268,42.33423590378246]]}},{"type":"Feature","properties":{"route":"E - Heath Street","grade":7},"geometry":{"type":"LineString","coordinates":[[-71.08744843062398,42.34092597306143],[-71.0873094626658,42.34097887699518],[-71.08722584161761,42.341018228406796],[-71.08702526969213,42.34110373278602],[-71.08692117448147,42.341161314284975],[-71.08677708964325,42.341243519025035],[-71.08658143055219,42.341387272119576],[-71.08643556792305,42.34150571402147],[-71.08173295348438,42.34535507644434],[-71.080078571487,42.34666333340222],[-71.0798941314068,42.346838271537685],[-71.07975930041573,42.34701623111424],[-71.07963568199287,42.34723104715703],[-71.07956067475749,42.347427267027676],[-71.07918601387298,42.3483935904314],[-71.07916543457563,42.34846713286863],[-71.07915356194468,42.348529405805785],[-71.07914161878804,42.348603007753084],[-71.07915258225867,42.34867669353668],[-71.07937726503494,42.34934315430921],[-71.07937928676282,42.34936236942364],[-71.07937434687393,42.349402550269296],[-71.07935904347787,42.34945655499229],[-71.07933445807123,42.34950081701364],[-71.07930150885115,42.349537430163714],[-71.07927052785918,42.34955949729421],[-71.07920680181876,42.3495883732371]]}},{"type":"Feature","properties":{"route":"C D","grade":7},"geometry":{"type":"LineString","coordinates":[[-71.10140114355944,42.34758528323004],[-71.0974656079678,42.3487035405482],[-71.09704702843646,42.348778537976536],[-71.09677517280211,42.34880759798665],[-71.09598916586609,42.34879126176376],[-71.09534972515712,42.348827053305975],[-71.09494499860284,42.34885301158748],[-71.09454837186085,42.34891496182324],[-71.09408537136477,42.34897911439789]]}},{"type":"Feature","properties":{"route":"C - Cleveland Circle","grade":2},"geometry":{"type":"LineString","coordinates":[[-71.1492872497562,42.33614538083838],[-71.14578432132858,42.33693605607032],[-71.14435440848115,42.33722379495325],[-71.14313629028774,42.337477165878276],[-71.14265051807656,42.337583491131035],[-71.14215322525526,42.33768220522987],[-71.14108178537839,42.33790378045752],[-71.14019490970908,42.33810560120532],[-71.13879589718468,42.338442652361095],[-71.13769680531925,42.33870611137099],[-71.13631968582021,42.33904184738586],[-71.13606915893439,42.33909931335257],[-71.13584053080065,42.339158203976176],[-71.13565755418435,42.33921859826301],[-71.13555738583952,42.33925622174053],[-71.13536769136519,42.33933608376587],[-71.13519346214825,42.33939855231802],[-71.13501516672345,42.33945502346546],[-71.13480850423699,42.339504500806896],[-71.1346166259799,42.339536267428294],[-71.1343335274539,42.339570814532834],[-71.13411115811142,42.3395954268522],[-71.13375408337917,42.339616314649135],[-71.13343808739218,42.3396247894642],[-71.13315796823471,42.33963065270893],[-71.13246467584696,42.33962303677902],[-71.13200079982234,42.33962290788983],[-71.1317286300149,42.33963152277817],[-71.13145827978774,42.339641493291374],[-71.13121166109647,42.33965289963326],[-71.13097962361425,42.33966976749764],[-71.13077649036946,42.339687737847704],[-71.13049305843188,42.33971717608547],[-71.13022487611762,42.339752700923256],[-71.12993425655341,42.33979241309528],[-71.12967834381813,42.33983223542795],[-71.12946990327346,42.339873569633],[-71.12925047043893,42.339920280563476],[-71.12903465932555,42.33997242701424],[-71.12879874489676,42.34002721983285],[-71.12854085494929,42.34009142213417],[-71.12830488274705,42.3401556947177],[-71.12806339127566,42.34022672455229],[-71.12784748255035,42.34029512231397],[-71.12766265083809,42.34035956360603],[-71.12736798328189,42.340465646342686],[-71.1271318659994,42.34055430493184],[-71.12693600851335,42.340629541598915],[-71.12671269347047,42.340714179655514],[-71.1265626017394,42.34077059693807],[-71.12643080147257,42.34082165640808],[-71.12625691199584,42.340887481431395],[-71.12608121182696,42.34095059042777],[-71.12590739373287,42.34100421891487],[-71.1255579883431,42.34110063704043],[-71.12530736329046,42.34117163134736],[-71.12505492009974,42.34123990930411],[-71.12466168328439,42.34133617726085],[-71.12443491832444,42.341386924392296],[-71.12430766859836,42.34141728600496],[-71.12402951939515,42.341477143721306],[-71.12355907422373,42.341574077311925],[-71.12308998933935,42.341679342030275],[-71.12221104531316,42.341897136639325],[-71.1217408295593,42.34203387081487],[-71.121519443675,42.34209953331539],[-71.12136577923592,42.34214102864739],[-71.12121761927439,42.34217847709547],[-71.1210567349131,42.342206400652664],[-71.1209251626122,42.34221815957648],[-71.12080089006002,42.34223130186429],[-71.12066744860824,42.34225118485563],[-71.12054125898447,42.34227922215253],[-71.117251847256,42.34320185138449],[-71.11455882349271,42.34394889419691],[-71.11344393729824,42.34424082312749],[-71.11288743418534,42.34438862510345],[-71.1106186247995,42.345024670328],[-71.10996785171247,42.345203649991646],[-71.10953967480367,42.34532654673462],[-71.1077126691223,42.345829391159185],[-71.1075626227262,42.34587359118999],[-71.10742898683435,42.345921911867265],[-71.10728434623185,42.34597832262932],[-71.10714702095417,42.34603340236553],[-71.106976819736,42.346087019133904],[-71.10671150482075,42.346163344303704],[-71.10552405467402,42.346493939029095],[-71.1055188577239,42.3464953193514]]}},{"type":"Feature","properties":{"route":"D E","grade":4},"geometry":{"type":"LineString","coordinates":[[-71.06490071315508,42.36579738606088],[-71.06541420685333,42.36598090934373],[-71.06558907504686,42.36604347018625],[-71.0657639872594,42.366099845942486],[-71.0659018873824,42.366138403677894],[-71.06610365593066,42.3661841209178],[-71.06634864242507,42.366242847872186],[-71.06657634102082,42.3662972264852],[-71.06679179793412,42.36634926820493],[-71.06700562216975,42.36641197359496],[-71.06715829206135,42.366466198222305],[-71.06729423780641,42.366524484853656],[-71.06892780703208,42.36734651956523],[-71.07245477066647,42.36914575333851],[-71.07444587294337,42.37016008527987],[-71.07466773259652,42.370272330841054],[-71.07493913601023,42.37040100564517],[-71.07513816493518,42.37052010083299],[-71.0753548862378,42.370679766717416],[-71.07555931167376,42.37086680866743],[-71.07575169581514,42.371056873110966],[-71.0759939666094,42.3712725425274],[-71.07616465341044,42.371408396504975],[-71.07634556551618,42.37152606787024],[-71.07651012731391,42.37163054086165],[-71.0767806512743,42.371780845508795],[-71.07710100809246,42.371913034390815],[-71.07776370783151,42.37220286564515],[-71.0780004996796,42.37229312766532],[-71.07882183426403,42.37269155283134],[-71.07916341360583,42.37288414452899],[-71.07976784067267,42.373263381643014],[-71.07990557653135,42.373351493420664],[-71.0799076899124,42.37335284526649],[-71.08027397073062,42.37358738714238],[-71.08044560292957,42.37370458055111],[-71.08064391217007,42.37386831673217],[-71.08077436519963,42.37398504891412],[-71.08088600633552,42.37410377856371]]}},{"type":"Feature","properties":{"route":"E - Heath Street","grade":2},"geometry":{"type":"LineString","coordinates":[[-71.10456849251268,42.33423590378246],[-71.10456432790457,42.334237291213995],[-71.1040888443165,42.33442958506041],[-71.10389441375438,42.334508678583376],[-71.10376972644258,42.33455986090946],[-71.10354143647618,42.33466073226073],[-71.10335125898067,42.334735146304695],[-71.10314625018708,42.334820457302456],[-71.10291597937518,42.33490099195567],[-71.10249281398524,42.335043009276696],[-71.10146263415118,42.335390179727675],[-71.1011985917851,42.33547684460249],[-71.10087951322885,42.33559928992775],[-71.10063442238297,42.33568914961999],[-71.10043366538338,42.33576821441945],[-71.09994693329496,42.33599524568619],[-71.0997463436454,42.33608401322762],[-71.09920360349385,42.336276919699145],[-71.09867321817875,42.33647838531412],[-71.09532995285134,42.337792920975446],[-71.09312561082415,42.33867191599427],[-71.09255918983587,42.338898251344304],[-71.09201589218283,42.33908744785744],[-71.09098034011348,42.33949786805577],[-71.09085359040307,42.33957565341228],[-71.09053018829553,42.339709003123524],[-71.08905067041563,42.340299598452475],[-71.08816647265085,42.340652615688576],[-71.08744843062398,42.34092597306143]]}},{"type":"Feature","properties":{"route":"D - Union Square","grade":4},"geometry":{"type":"LineString","coordinates":[[-71.08088600633552,42.37410377856371],[-71.08128146983955,42.37446573117289],[-71.08133748577751,42.374520839012995],[-71.08162266001173,42.37478525077346],[-71.08167537358358,42.3748231545665],[-71.08174858787437,42.37487020685826],[-71.08181565384048,42.37490583642786],[-71.08191459327439,42.37494447262101],[-71.08198956358731,42.374970585980755],[-71.08207866098698,42.37499635448901],[-71.08217270422506,42.37501361698229],[-71.08256149623189,42.375069331023106],[-71.08289938498257,42.37512263098515],[-71.0848079151081,42.37535393407401],[-71.08592092984478,42.37545466618592],[-71.0862143272706,42.37549428834442],[-71.08651201547508,42.3755334435227],[-71.0868063921108,42.375572161999955],[-71.08705559230923,42.375603591802026],[-71.08741199266306,42.375656441667786],[-71.08791563189178,42.37571475962152],[-71.08835314235964,42.37576749825881],[-71.08858939338145,42.375800221620274],[-71.08871850930757,42.37581604037706],[-71.08892967602955,42.375841704243484],[-71.08942938675654,42.37589885545578],[-71.08980751519498,42.37594331724523],[-71.0901317395146,42.37597909515539],[-71.09124072657421,42.376113242080066]]}},{"type":"Feature","properties":{"route":"E - Medford/Tufts","grade":1},"geometry":{"type":"MultiLineString","coordinates":[[[-71.0842294667384,42.37695795121659],[-71.08423685637855,42.37696518290965],[-71.08435435862525,42.377100849320016],[-71.08463419221118,42.37739526039948],[-71.08488737756429,42.37768475628768],[-71.08507890931719,42.37791906591741],[-71.08546932696238,42.37831877852041]],[[-71.08546890767184,42.378318464610594],[-71.08557517459988,42.378438016435716],[-71.08591414640088,42.37881935726227],[-71.08647864741725,42.379390863974]],[[-71.08647849359302,42.379391175820004],[-71.08649530387976,42.37940885031924],[-71.08715555804137,42.38001151266704],[-71.08804525043033,42.38084532352265]],[[-71.08804818087452,42.38084508823803],[-71.08849667068907,42.381320251976064],[-71.08888427612024,42.381713405501195],[-71.08983802209683,42.38266905836406],[-71.09003438923537,42.38287388778667]],[[-71.09003437996704,42.382875317404846],[-71.09044367806317,42.38330225029777],[-71.09134767651358,42.384276066215676],[-71.09221120650788,42.38521032227672],[-71.09273100429925,42.385699536368946],[-71.09346008351375,42.386323222065755],[-71.09353682574819,42.38638124816866],[-71.09413026451517,42.386727750900725],[-71.09430763332652,42.386812514193565],[-71.09487624167635,42.38712716437646],[-71.09528650597912,42.38731196701988],[-71.09538073423991,42.387356110691925],[-71.09627854884259,42.387755884060454],[-71.09712483036438,42.388145869305454],[-71.09765950976292,42.38839657471072],[-71.09872204395604,42.38888456697859],[-71.09973244580631,42.38934213470215],[-71.10038344729801,42.389633016266224],[-71.10059014021961,42.389719147297946],[-71.10205147859394,42.3903804748109],[-71.10271554889859,42.39068098793913],[-71.10286548629013,42.39076017755737],[-71.10394674755953,42.39140018832608],[-71.10415265891515,42.39154592144487],[-71.10497309341154,42.39217425833014],[-71.10516478865233,42.39234723372195],[-71.10548261140745,42.39269833701553],[-71.10592073308139,42.39316890192686],[-71.10643744537487,42.39386070970247]],[[-71.1063929737963,42.393801883577844],[-71.10643744537487,42.39386070970247]],[[-71.10643744537487,42.39386070970247],[-71.10666052488172,42.39415579411501],[-71.10690481482864,42.39453358010553],[-71.10721159142845,42.394957533672795],[-71.10765436872998,42.39555910556312],[-71.1079794537758,42.39599922988756],[-71.10860388078999,42.39680798501406],[-71.1087881238368,42.397057344542404],[-71.10887312487296,42.39718168308918],[-71.10921094210717,42.39764017398519],[-71.10961066969082,42.39819147485939],[-71.1098795482528,42.3985103862469],[-71.11020960491659,42.39894818268898],[-71.1103628268957,42.3991540346685],[-71.11050907350378,42.39935051431881]],[[-71.11050907350378,42.39935051431881],[-71.11051497046523,42.39935843693174]],[[-71.11050907350378,42.39935051431881],[-71.1106521848668,42.39952744979666],[-71.11086213087655,42.399787014589435],[-71.1114166294704,42.40051696223151],[-71.11150445074533,42.40063602178229],[-71.11193196200504,42.40123206260887],[-71.11225190584679,42.40166365810622],[-71.11253303293354,42.4020982342409],[-71.11282869998361,42.40249639635093],[-71.11326369144825,42.40303936490888],[-71.11343336912287,42.40331267979899],[-71.11373344133271,42.40371559869648],[-71.11403392850592,42.40412320140061],[-71.11435146922284,42.40451817819033],[-71.1146617464561,42.40494455664992],[-71.115337890047,42.40582364256519],[-71.11570353766972,42.40631829740616],[-71.11601940678953,42.40674560441624],[-71.11640255670861,42.407262154218465],[-71.1164488874246,42.40732359412599],[-71.11666572048286,42.40761113596022],[-71.11702778725594,42.408061609475],[-71.11770010500376,42.40884884052635],[-71.11775853589873,42.408917257601985],[-71.11847189703491,42.4096236826064],[-71.11864208414559,42.40978981566207]]]}},{"type":"Feature","properties":{"route":"E - Medford/Tufts","grade":4},"geometry":{"type":"LineString","coordinates":[[-71.08088600633552,42.37410377856371],[-71.08088938465754,42.37410737131121],[-71.08112333616259,42.3743561767112],[-71.08135439328186,42.374611093028065],[-71.08167375933184,42.37497009701506],[-71.08185120242425,42.375150726455544],[-71.08202543585375,42.37527224646738],[-71.08241014153865,42.375512152798244],[-71.08301934443672,42.3758750648896],[-71.08316933894096,42.37597670788775],[-71.08326229424523,42.376041223346164],[-71.08347855615281,42.37622019835337],[-71.08356762755213,42.37629084214687],[-71.0842294667384,42.37695795121659]]}},{"type":"Feature","properties":{"route":"D - Union Square","grade":1},"geometry":{"type":"LineString","coordinates":[[-71.09124072657421,42.376113242080066],[-71.09170738797656,42.37620801581112],[-71.09234450503104,42.376362952878885],[-71.09248118677664,42.37639699258158],[-71.09278164017206,42.376475234384394],[-71.09310422224284,42.37657047813312],[-71.09360213422929,42.37679355799413],[-71.0943336236416,42.377120723179786],[-71.09507670564149,42.37747349616293]]}}]}