{"type":"FeatureCollection","features":[{"type":"Feature","geometry":{"type":"LineString","coordinates":[[-71.06899508424996,42.34762560035659],[-71.06899407364885,42.3476255434513],[-71.06858271919933,42.34756178071584],[-71.06831857601306,42.34753401017313],[-71.0678669921705,42.34748729932406],[-71.06767299937152,42.34748657010905],[-71.06752648887796,42.347502899646344],[-71.06734363735968,42.347564669570446],[-71.0643115893889,42.34896274142277],[-71.06423320574146,42.34900847004995],[-71.0641510251979,42.34905671315335],[-71.06410445318383,42.34911765656733],[-71.06391691492745,42.34984803325921],[-71.06331698262359,42.350465832789354],[-71.06311791343961,42.350792908114315],[-71.06307028124664,42.35086046151268],[-71.06285184594101,42.35127776746198],[-71.06277622019921,42.35169277111901],[-71.06258113140245,42.352482805940916],[-71.06255418772693,42.352723374840416],[-71.06253966764729,42.35299524730955],[-71.06250488269848,42.353311800664095],[-71.06248103056963,42.35340992903074],[-71.06242073576207,42.35354665287145],[-71.06236235459134,42.35365095095719],[-71.06225173524281,42.3538036803213],[-71.06190783729694,42.354174319862715],[-71.06155578364698,42.35450428991256],[-71.06072497074607,42.35525914760275],[-71.06049369759702,42.355458759733466],[-71.06041552436719,42.355520512623094],[-71.05998250420446,42.3559235537381],[-71.05968979757951,42.3562006161962],[-71.05929977742164,42.356533559720795],[-71.05876972568441,42.357003493209184],[-71.0582138181583,42.357554589681364],[-71.058124620355,42.35765426842448],[-71.05805224001747,42.35776025704413],[-71.05798830768734,42.357863158577985],[-71.05792836515147,42.35799732630976],[-71.05789349795211,42.35816284850477],[-71.05785336268092,42.358478379397816],[-71.05777516883869,42.35924318994806],[-71.05774371068858,42.35962067788492],[-71.05772758954214,42.360091631704776],[-71.0577037339824,42.360750655202686],[-71.05771220338669,42.36116250848167],[-71.05772892617814,42.36143932201728],[-71.05773846046192,42.36185447528703],[-71.05780177752453,42.362583478353464],[-71.05782855678834,42.36273327882768],[-71.05787089389521,42.362867167053636],[-71.05790621341446,42.36297427977161],[-71.05795944542793,42.36309751168902],[-71.05801292176672,42.36318597982342],[-71.05808074880382,42.363285196713576],[-71.0581446455735,42.36335968190501],[-71.05830300323993,42.36351674072201],[-71.05844720308654,42.36367448769954],[-71.0585705876313,42.36381794712918],[-71.05911941426416,42.364383948611895],[-71.06057031626958,42.36584131211127],[-71.06571958697451,42.3712603876378],[-71.06575278145986,42.371291115537666],[-71.06579585773149,42.371322377687754],[-71.06582603102063,42.37134610612782],[-71.06613077555849,42.371556935682534]]},"properties":{"route":"Forest Hills to Oak Grove","grade":7}},{"type":"Feature","geometry":{"type":"LineString","coordinates":[[-71.11419205447743,42.300779876941405],[-71.11322826880787,42.302092885567745]]},"properties":{"route":"Forest Hills to Oak Grove","grade":7}},{"type":"Feature","geometry":{"type":"LineString","coordinates":[[-71.11322826880787,42.302092885567745],[-71.11313479309723,42.302220229660705],[-71.11277809995374,42.30272880076259],[-71.11267037200118,42.30286742399593],[-71.11248749288985,42.30311720117084],[-71.11207391140148,42.303657674707225],[-71.11183104458547,42.30401528230682],[-71.11103928273873,42.305205988385836],[-71.11050907543958,42.30603583492566],[-71.11048555729306,42.30607200391686]]},"properties":{"route":"Forest Hills to Oak Grove","grade":6}},{"type":"Feature","geometry":{"type":"LineString","coordinates":[[-71.11048555729306,42.30607200391686],[-71.10952954916192,42.30754228184701],[-71.10946038078663,42.30765184984227]]},"properties":{"route":"Forest Hills to Oak Grove","grade":7}},{"type":"Feature","geometry":{"type":"LineString","coordinates":[[-71.10946038078663,42.30765184984227],[-71.1094505058598,42.30766749407088],[-71.10912820367675,42.308145263122746],[-71.10894808805212,42.30840515333576],[-71.10875776755397,42.30870944901698],[-71.10860957130276,42.30895196716588],[-71.10851497599505,42.30912207762099],[-71.10842892904931,42.30928432601252],[-71.10823545548101,42.30962768476788],[-71.10791571985285,42.310137424106586]]},"properties":{"route":"Forest Hills to Oak Grove","grade":6}},{"type":"Feature","geometry":{"type":"LineString","coordinates":[[-71.10791571985285,42.310137424106586],[-71.10788255048071,42.31019030425077],[-71.10736612019794,42.31083909868113]]},"properties":{"route":"Forest Hills to Oak Grove","grade":7}},{"type":"Feature","geometry":{"type":"LineString","coordinates":[[-71.10736612019794,42.31083909868113],[-71.10736470577856,42.31084087553739],[-71.10728004886174,42.31096864368275],[-71.1071083729028,42.311217053952156],[-71.10694632327431,42.31145838453198],[-71.10660957187429,42.312049486602255],[-71.10636232549949,42.31250395003288],[-71.10605151165439,42.313160950037535],[-71.10578650788675,42.31377186252273],[-71.10577907609357,42.3137899167952]]},"properties":{"route":"Forest Hills to Oak Grove","grade":6}},{"type":"Feature","geometry":{"type":"LineString","coordinates":[[-71.10577907609357,42.3137899167952],[-71.1054019224225,42.31470613309267]]},"properties":{"route":"Forest Hills to Oak Grove","grade":7}},{"type":"Feature","geometry":{"type":"LineString","coordinates":[[-71.1054019224225,42.31470613309267],[-71.10539465546225,42.3147237854707],[-71.10528500599546,42.31499564699877],[-71.10491757516284,42.316093413631165],[-71.10491345390913,42.31610379068764]]},"properties":{"route":"Forest Hills to Oak Grove","grade":6}},{"type":"Feature","geometry":{"type":"LineString","coordinates":[[-71.10491345390913,42.31610379068764],[-71.10476313581528,42.31648225820904],[-71.10450346438151,42.31700086213326],[-71.10435780590586,42.31725532386596]]},"properties":{"route":"Forest Hills to Oak Grove","grade":7}},{"type":"Feature","geometry":{"type":"LineString","coordinates":[[-71.10435780590586,42.31725532386596],[-71.10425147846914,42.31744107517449],[-71.10414159495595,42.31763340160018],[-71.1038858159243,42.318043689288466],[-71.10350526141936,42.31861106723632],[-71.10321222422245,42.31901573932625],[-71.10305366281727,42.319231894901186],[-71.10287782281524,42.31944207560601],[-71.10170399213528,42.32081067716291],[-71.10119189316075,42.3214184539543],[-71.10096265149224,42.32168908489416],[-71.10053603716433,42.322235195295384],[-71.10043733773438,42.32237371833985],[-71.10034408250024,42.32252571694614]]},"properties":{"route":"Forest Hills to Oak Grove","grade":6}},{"type":"Feature","geometry":{"type":"LineString","coordinates":[[-71.10034408250024,42.32252571694614],[-71.10014611911369,42.32284837952187],[-71.09976664358165,42.323439574805015],[-71.09945512471529,42.32399617678786],[-71.0992323871123,42.32440920946367],[-71.09891811754001,42.325114851398745]]},"properties":{"route":"Forest Hills to Oak Grove","grade":7}},{"type":"Feature","geometry":{"type":"LineString","coordinates":[[-71.09891811754001,42.325114851398745],[-71.0989097952043,42.32513353859648],[-71.09856280776427,42.32604197741538],[-71.0981096437616,42.327267077315746],[-71.09798848491363,42.32759173480885],[-71.09783874474722,42.32793392263781],[-71.09774902732829,42.32812586215779],[-71.09765420363235,42.32832279026783],[-71.09745200797721,42.32868187702909],[-71.09731931135823,42.32892382648761],[-71.09707429092379,42.329336740585816],[-71.09659019090698,42.33009438078543],[-71.09629793215109,42.330514474677265],[-71.09572943447598,42.33121818328099],[-71.09521866327512,42.33171969806745],[-71.09486131585163,42.33205772588352],[-71.09457679832653,42.33231552406173],[-71.09328653765922,42.333383934171174],[-71.09316559653803,42.333489541951096]]},"properties":{"route":"Forest Hills to Oak Grove","grade":6}},{"type":"Feature","geometry":{"type":"LineString","coordinates":[[-71.09316559653803,42.333489541951096],[-71.09044075250573,42.335868780099545]]},"properties":{"route":"Forest Hills to Oak Grove","grade":7}},{"type":"Feature","geometry":{"type":"LineString","coordinates":[[-71.09044075250573,42.335868780099545],[-71.09020305131504,42.33607632040025],[-71.08977090549259,42.33646140574684],[-71.089244004643,42.336892679016565],[-71.08880884924828,42.33721701527441],[-71.08846504378468,42.33747078780871],[-71.08810628169763,42.33770929347051],[-71.08754069394013,42.33814648286175],[-71.08659669738738,42.33887544938604],[-71.08619185000892,42.33919830375715],[-71.08574895081418,42.33957033225185],[-71.08536216812377,42.33991329919747],[-71.085106689577,42.34015545577061],[-71.08443492500416,42.34078548458253],[-71.08401267616954,42.341127195189934],[-71.08375735549457,42.341322602502366]]},"properties":{"route":"Forest Hills to Oak Grove","grade":6}},{"type":"Feature","geometry":{"type":"LineString","coordinates":[[-71.07356843678248,42.34761799457771],[-71.07275512424839,42.34764454379268],[-71.07192145710464,42.34764875805847],[-71.07102434418252,42.34765561143852],[-71.07002233689796,42.347658183567475],[-71.06959898508782,42.3476597525381],[-71.06899508424996,42.34762560035659]]},"properties":{"route":"Forest Hills to Oak Grove","grade":6}},{"type":"Feature","geometry":{"type":"LineString","coordinates":[[-71.07687935925198,42.411568748276736],[-71.07685898455723,42.41248950270227],[-71.07685501860253,42.413360650687125],[-71.07682707205227,42.41475220253528],[-71.07683082105811,42.41753138011399],[-71.07683423943023,42.417844146362086],[-71.07682970316556,42.41822984542131],[-71.07682698717532,42.41863547427128],[-71.07680021085781,42.41904164932843],[-71.0767802578003,42.41923900224763],[-71.07676043283261,42.41941702847727],[-71.0767213755521,42.41968472449695],[-71.07668795827188,42.41990180604904],[-71.07662347510559,42.42028649672228],[-71.07653757910794,42.42069603182643],[-71.0764794129011,42.42094361093355],[-71.07641391121635,42.42120508308615],[-71.07634999339872,42.421438107772126],[-71.07629469848378,42.421625664168],[-71.07619863796066,42.421906356224966],[-71.07613818295465,42.422072883778576],[-71.07598640006564,42.42248195424761],[-71.07568073717403,42.42324381048535],[-71.07556801744744,42.42351519378614],[-71.07545184502868,42.42379663561961],[-71.07495834559342,42.4250163786068],[-71.07466739338068,42.42573271322309],[-71.07452106369095,42.42609059122575],[-71.07408280259658,42.42715624751839],[-71.07384307379034,42.427729494903716],[-71.07375728125172,42.427960080850525],[-71.07364619401207,42.4282480160236],[-71.07339292028533,42.42890105579576],[-71.07290636083577,42.43013818798238],[-71.07257506717679,42.430957442100826],[-71.07193328191927,42.4325450076656],[-71.07174778499854,42.43299799857739],[-71.07167336098482,42.43319137256004],[-71.07162831100159,42.433321614203344],[-71.07157704447741,42.433460995687064],[-71.07153904950891,42.433583284407284],[-71.07144948069991,42.43388908032296],[-71.07138456972405,42.43412739876373],[-71.07133856104532,42.43432442173256],[-71.07130573563963,42.43449804701975],[-71.0711215878704,42.43557295636762],[-71.07109454589273,42.43571764578021],[-71.07104632200591,42.4359656824254],[-71.07098406742374,42.436361213514346],[-71.07093935801959,42.436639597891315],[-71.07090250919936,42.43685733759022],[-71.07087370739374,42.43698450643021],[-71.07069500260293,42.43902346439936]]},"properties":{"route":"Forest Hills to Oak Grove","grade":1}},{"type":"Feature","geometry":{"type":"LineString","coordinates":[[-71.0769003346466,42.410620780422086],[-71.07687935925198,42.411568748276736]]},"properties":{"route":"Forest Hills to Oak Grove","grade":7}},{"type":"Feature","geometry":{"type":"LineString","coordinates":[[-71.07723280886202,42.3985398856457],[-71.07723432365204,42.39883993342551],[-71.07723146044422,42.399387063528565],[-71.07720413937493,42.400138569275896],[-71.07720562368513,42.400237377887365],[-71.07718247820956,42.400774555412156],[-71.07710992013256,42.40187145939501],[-71.0770882530897,42.40268748966798],[-71.07709194290436,42.40273841049629],[-71.07701751275512,42.40457274287207],[-71.07700010593658,42.405258295372306],[-71.07699461284534,42.40574551485265],[-71.07695802439913,42.40703615573389],[-71.07693260364687,42.40930367636886],[-71.07693140763834,42.40934024761751],[-71.07690229228061,42.41053232350525],[-71.0769003346466,42.410620780422086]]},"properties":{"route":"Forest Hills to Oak Grove","grade":1}},{"type":"Feature","geometry":{"type":"LineString","coordinates":[[-71.07724556697131,42.395224984815584],[-71.07722876097651,42.39773824652494],[-71.07723280886202,42.3985398856457]]},"properties":{"route":"Forest Hills to Oak Grove","grade":4}},{"type":"Feature","geometry":{"type":"LineString","coordinates":[[-71.06613077555849,42.371556935682534],[-71.06662730965805,42.37190044409044],[-71.06795688849098,42.37273679077823],[-71.06842558111346,42.37300617136908],[-71.06880301001479,42.37319579632111],[-71.06921686897302,42.37336165652462],[-71.0693652261004,42.373466773156174],[-71.06953384586774,42.373554038900636],[-71.07130522985437,42.374352325754536],[-71.07171475189575,42.374565960541226],[-71.0719112996626,42.37469515315346],[-71.07264557450645,42.3751459973956],[-71.07285405528013,42.37529913350459],[-71.07362758551766,42.37590546514601],[-71.07421618150003,42.37645435036965],[-71.0745201193755,42.376793054334755],[-71.07619726561569,42.37874612599735],[-71.07634871338746,42.378918786921595],[-71.07645306648713,42.379062594763305],[-71.07654227008403,42.379222276395815],[-71.07662505842005,42.37937716012878],[-71.0766759357855,42.37948252140957],[-71.07676476724082,42.379697980469125],[-71.07683834016838,42.379945248927434],[-71.0768822920086,42.380122298661135],[-71.0769174752938,42.38032481130499],[-71.07693988292087,42.38050974749354],[-71.07695369118065,42.38069465114823],[-71.07696538100429,42.38087476738926],[-71.07697053779326,42.38106760493727],[-71.07697569580382,42.381260446082024],[-71.0769340026181,42.383315987212995],[-71.07693252785373,42.384179687868546],[-71.07692785491427,42.385841753202975],[-71.07693649816935,42.386155716777225],[-71.07693818852262,42.38718835148123],[-71.07700441985166,42.38905786129568],[-71.07701395766632,42.38969099549803],[-71.07701894562115,42.38997437532398],[-71.07701614495473,42.39039302737119],[-71.07702299508729,42.39091382857042],[-71.07703159820359,42.39117169407678],[-71.07705711904664,42.39147556949604],[-71.07709810532855,42.39188356363274],[-71.07714748349261,42.392382150704314],[-71.07719898107312,42.3929209863181],[-71.07724033902971,42.39343169937017],[-71.0772526279585,42.39365383702791],[-71.07725675287169,42.39406740685689],[-71.07724618945278,42.39513189161735],[-71.07724556697131,42.395224984815584]]},"properties":{"route":"Forest Hills to Oak Grove","grade":1}},{"type":"Feature","geometry":{"type":"LineString","coordinates":[[-71.08375735549457,42.341322602502366],[-71.08372509711162,42.341347290581645],[-71.0835106789574,42.3414860576555],[-71.08325562400697,42.34163255370386],[-71.07675739682921,42.34688252984922],[-71.07644983378928,42.347130983526164],[-71.0763085681372,42.34724665388196],[-71.07617578287044,42.34734206093751],[-71.07604594008046,42.34742682103087],[-71.07593063419048,42.3474860608946],[-71.07579250616907,42.34752177734604],[-71.07564293954735,42.34754892925363],[-71.0754446669984,42.34755672492307],[-71.07356843678248,42.34761799457771]]},"properties":{"route":"Forest Hills to Oak Grove","grade":7}}]}