{"type":"FeatureCollection","features":[{"type":"Feature","geometry":{"type":"LineString","coordinates":[[-71.08197731728082,42.36200151807269],[-71.0832593578188,42.36211469770703],[-71.08422822344697,42.362207475959245],[-71.08523013952266,42.36233132255518],[-71.08619209346455,42.36242401789808],[-71.08684563826692,42.362480685437745],[-71.08832578603872,42.362623092443386],[-71.09176100200537,42.36280472616633],[-71.09480924303524,42.36305992276795],[-71.0967470425976,42.36320963138877],[-71.09818711063156,42.36331230938227],[-71.09954528611398,42.36341519108873],[-71.09987157790074,42.36343569998009],[-71.10013974313621,42.36345321318621],[-71.10034749749317,42.363478803016136],[-71.10048142195667,42.363512429487535],[-71.10061971774792,42.36356264527561],[-71.10073779468233,42.363627717478565],[-71.10094056878398,42.36373453089194],[-71.10189008513905,42.36427957746823],[-71.10283337843953,42.36485314540214],[-71.10427709534656,42.3657194010131],[-71.10682038479732,42.367283850802636],[-71.10724253204154,42.36754523005581],[-71.10795676424732,42.36795114709123],[-71.10850957103334,42.36823624468361],[-71.10894778659025,42.36843947326483],[-71.10988561019512,42.368824611355336],[-71.11138401490729,42.36939379005715],[-71.11275814828468,42.3698878250752],[-71.11295636257252,42.36998548447321],[-71.11309714778164,42.3700635492182],[-71.11319600200407,42.37015311618896],[-71.11345624758067,42.370375129970334],[-71.11522095058497,42.37184366002694],[-71.11546042164792,42.37204232277738],[-71.11559576823971,42.372155287380224],[-71.11578306062536,42.372330496388514],[-71.11594977716933,42.3724474419646],[-71.11614282350568,42.37253731626053],[-71.116351638399,42.37261560393597],[-71.11788716261898,42.37306687351981],[-71.11844078444702,42.373231655522595],[-71.11853988642915,42.373282416344814],[-71.11868054549909,42.37338375599488],[-71.11876372372267,42.37347326160381],[-71.11881560283352,42.373547147933884],[-71.11886217778303,42.37363265104353],[-71.1188982377323,42.37372588065103],[-71.11890793216985,42.373830778819524],[-71.11891206717642,42.37391709920082],[-71.11890668410508,42.37403790495882],[-71.11888689407773,42.374231164697534],[-71.11886901888036,42.374450183406395],[-71.11885533254095,42.37489041495986],[-71.11889217160758,42.37537009056739],[-71.11893342915164,42.37578134924332],[-71.11896042427927,42.37593679170043],[-71.11904763870935,42.37614421071812],[-71.11919579588265,42.37628278682052],[-71.11945546410836,42.3764597083333],[-71.11971975479385,42.37664355060669],[-71.11978913665682,42.376719725191926],[-71.1198583795868,42.3768242933297],[-71.11997265361828,42.377172569390375],[-71.12011476936782,42.37754242251912],[-71.12017401635006,42.3777566534073],[-71.12018710912808,42.37790169092815],[-71.12018621762708,42.378050131260935],[-71.12013698438238,42.37849530120672],[-71.11988520754915,42.38087647708809],[-71.11956920221235,42.38379508936975],[-71.11924512952599,42.38681896558924],[-71.11857565655006,42.39457751357016],[-71.11858225286868,42.39486944231035],[-71.11860889577179,42.39508246759493],[-71.11864779496929,42.395248213854366],[-71.11871461026307,42.395417006412444],[-71.11880545046914,42.395571096811906],[-71.11890839722489,42.395701566966245],[-71.1190474244916,42.39580553609177],[-71.11920245661767,42.39590068574885],[-71.11934960575431,42.39598102652098],[-71.11949687380454,42.39604066195681],[-71.11976375442639,42.39611547958842],[-71.12002272214362,42.39617844169229],[-71.12033746486308,42.39625637523568],[-71.1212179252477,42.39647812842185],[-71.1215917342925,42.39657097069775],[-71.12192283187429,42.39667146155665],[-71.12223463295423,42.39676053468694],[-71.12331380405502,42.397025210033675],[-71.12424110085585,42.39721769375377],[-71.12487687626205,42.39731584758651],[-71.12523798333501,42.397363606385554],[-71.1256031592959,42.397388091560785],[-71.12662001321573,42.397478739506724],[-71.12792358913389,42.397576131559155],[-71.1291055012442,42.39765564776019],[-71.1310219002476,42.39774915244951],[-71.13267512456784,42.397841789972716],[-71.13388061714245,42.397921332355686],[-71.13454825736869,42.397946745596265],[-71.13525530717786,42.397951902066005],[-71.13576997340442,42.39793897104098],[-71.13608045960844,42.39791084010456],[-71.13644998592085,42.397862511649265],[-71.13667423849009,42.39780207653857],[-71.13684049502437,42.3977599452108],[-71.1370387933138,42.39768585668018],[-71.13720351348627,42.397608891796985],[-71.13738334876612,42.397498767522805],[-71.13755200429843,42.39738584209925],[-71.13766832918834,42.39728381970106],[-71.1377921466918,42.3971762840522],[-71.13791218496434,42.39707704325086],[-71.13801354602349,42.39698050833058],[-71.13810368390412,42.39688670458271],[-71.13820510040966,42.39677910253667],[-71.13830650684166,42.39667426242373],[-71.13838912786413,42.39658873989569],[-71.13848659070062,42.396519863277604],[-71.13861020574309,42.396448303051415],[-71.13873379862949,42.39637950827967],[-71.13889471283606,42.396313600652235],[-71.1390855430237,42.396239485156514],[-71.13931354373261,42.39619315593047],[-71.13954759277861,42.39617026595701],[-71.14207793210431,42.396129705485514]]},"properties":{"route":"A - Ashmont B - Braintree  C - Alewife","grade":7}},{"type":"Feature","geometry":{"type":"LineString","coordinates":[[-71.05307360238284,42.32283097618341],[-71.0532057967381,42.32304193839156],[-71.05334658587213,42.323253652271646],[-71.05354342060335,42.32351140253422],[-71.05374845531355,42.32374926698573],[-71.05400437248029,42.32400525432623],[-71.0541937391605,42.324181298525566],[-71.05442061545314,42.324367448708685],[-71.05468498105569,42.324567687488766],[-71.05479915725779,42.32465631032591],[-71.05498936724806,42.32480393854697],[-71.05572901042041,42.32537257277758]]},"properties":{"route":"A - Ashmont  C - Alewife","grade":4}},{"type":"Feature","geometry":{"type":"LineString","coordinates":[[-71.03897190698042,42.28603170855601],[-71.04061092556184,42.28750695400162],[-71.04098142829059,42.28780897316532],[-71.04226421824485,42.28892631065083],[-71.0447036943782,42.291120502346224],[-71.04683478849644,42.29301440394862],[-71.04846113336654,42.29446135298791],[-71.04958536478293,42.29546009806741],[-71.05267837005955,42.298212472179316],[-71.05317519927094,42.29865541956137],[-71.05385613325521,42.29926500999986],[-71.05411619497758,42.29950399645909],[-71.05425343332959,42.29964425318651],[-71.05452200863246,42.29992693818694],[-71.05471443315162,42.30016565737986],[-71.05488621397795,42.30041303009393],[-71.05501882536056,42.300604235847175],[-71.05513401800297,42.30078687424464],[-71.05524075446965,42.30098800620091],[-71.05532676166106,42.30117979191693],[-71.05539819343633,42.3013746091971],[-71.05547136342838,42.30161729950113],[-71.05552566890142,42.301813174898975],[-71.05555905497886,42.30196207712561],[-71.05557936937039,42.30209978754408],[-71.05559873336746,42.302234682636445],[-71.05560487471148,42.30235672159036],[-71.0556134047615,42.302585286280106],[-71.05561528197072,42.302702652372396],[-71.05561680689569,42.30279780845698],[-71.05561049289079,42.3029984468785],[-71.05559146329631,42.303178569555925],[-71.05556249013968,42.30337037118923],[-71.0555154021137,42.30361191372093],[-71.05547452265249,42.30379949726192],[-71.05542800205433,42.30397343379381],[-71.05516848481557,42.3049554469368],[-71.05432092486012,42.3081649114219],[-71.05427234473667,42.30833759515015],[-71.05398182258496,42.30923305124205],[-71.0538617808234,42.3095755529656],[-71.05376839843377,42.30982994122473],[-71.05366795748569,42.31007859947948],[-71.05331858683795,42.31091962157753],[-71.05302410079635,42.311635881716235],[-71.0524364742824,42.31299672104255],[-71.05223860180884,42.31347474147198],[-71.05217972130211,42.313631727815185],[-71.05212664710365,42.31378444862413],[-71.05205591899703,42.31398283582622],[-71.05200442994914,42.314183679269895],[-71.05195482298518,42.314390724082976],[-71.05192859200965,42.31455974762045]]},"properties":{"route":"B - Braintree  C - Alewife","grade":1}},{"type":"Feature","geometry":{"type":"LineString","coordinates":[[-71.05660902173561,42.32605077326797],[-71.05709471378408,42.326471032748046],[-71.05729172130962,42.326642984971755],[-71.05751115789843,42.32686083660622],[-71.05773360799112,42.32711245513608],[-71.05791386375964,42.3273566743593],[-71.05796829725634,42.32747261956479],[-71.05800988121548,42.327566818178916],[-71.05802216925841,42.32766813172054],[-71.05801169913714,42.327771773250646],[-71.05798578568691,42.32784247565397],[-71.05786443774089,42.32812546292531],[-71.05765542461565,42.32853454591525],[-71.05706538674984,42.32970316097323],[-71.05700449632077,42.32985823468798],[-71.05697877645085,42.32997276041827],[-71.05697784465661,42.33010587556404],[-71.05708560631906,42.33607071229072],[-71.05720801249481,42.34137000374825],[-71.05718835382066,42.34204291144935],[-71.05716397100298,42.342796001744176],[-71.05714195576107,42.34297455777967],[-71.05709569683167,42.34317405488529],[-71.05703818856642,42.34331724836177],[-71.05696751937643,42.343440921340346],[-71.05455336809948,42.3475665711761],[-71.05303727186305,42.349878091741104],[-71.05293596056671,42.35005500696846],[-71.0528852318414,42.35015377531575],[-71.05283994517025,42.35027729044141],[-71.05279050176622,42.35043250759336],[-71.05275294277973,42.35065213736832],[-71.0527571054816,42.350803460343315],[-71.0527925674597,42.35096654402359],[-71.05284363209935,42.351141327341765],[-71.05295746649522,42.35131635466805],[-71.05308715684276,42.35146816553396],[-71.05324318911012,42.35159291946662],[-71.0535243115501,42.35178023498807],[-71.05454268252323,42.35227073568055],[-71.05564112148562,42.35284464982619],[-71.05578624904683,42.352904931400495],[-71.05596229955859,42.352972227534316],[-71.05613218773333,42.35303490452022],[-71.05635783605116,42.353095495236396],[-71.05663913952571,42.35316778782084],[-71.0568648603759,42.35321902558368],[-71.05708961959796,42.35327608138551],[-71.05730678004504,42.3533518263625],[-71.05756615356374,42.35346078395663],[-71.05784390669513,42.35359967610931],[-71.05806910212243,42.353724578548785],[-71.05825261620166,42.35384887298993],[-71.05838906260098,42.3539354154206],[-71.05912108501087,42.35448715898368],[-71.05947350457238,42.3547481166984],[-71.05983018841016,42.355001270597846],[-71.06031279391712,42.35534092411383],[-71.06049369759702,42.355458759733466],[-71.06205620088993,42.356213427959595],[-71.06224790322246,42.35631239488547],[-71.06248103041392,42.35643161718889],[-71.06517593907336,42.35769820830101],[-71.06555892834808,42.357898456073016],[-71.06590137447961,42.358111052758936],[-71.06916196258844,42.36057418969508],[-71.0692095597144,42.36060602127689],[-71.06939675110912,42.36072105908213]]},"properties":{"route":"A - Ashmont B - Braintree  C - Alewife","grade":7}},{"type":"Feature","geometry":{"type":"LineString","coordinates":[[-71.06939675110912,42.36072105908213],[-71.06947332075369,42.36076811488813],[-71.06967858924132,42.36086465862167],[-71.0697925831658,42.36091496473277],[-71.06994031996976,42.36097093189012],[-71.07007103204495,42.36101327055196],[-71.0702656975312,42.361068864428994],[-71.07038322536326,42.361094246031264],[-71.07052457099473,42.36111849836415],[-71.07065534024602,42.36113516571378],[-71.07081999179195,42.36115323686673],[-71.07161651382573,42.36122354629624],[-71.08192859966944,42.361997216771464],[-71.08197731728082,42.36200151807269]]},"properties":{"route":"A - Ashmont B - Braintree  C - Alewife","grade":4}},{"type":"Feature","geometry":{"type":"LineString","coordinates":[[-71.05572901042041,42.32537257277758],[-71.05596670598575,42.32554880075414],[-71.05658883174287,42.32603330254307],[-71.05660902173561,42.32605077326797]]},"properties":{"route":"A - Ashmont B - Braintree  C - Alewife","grade":1}},{"type":"Feature","geometry":{"type":"LineString","coordinates":[[-71.05289893348815,42.3228591379296],[-71.05296720380464,42.32299518732399],[-71.05310250636151,42.32322281994597],[-71.05324337991196,42.32342258191676],[-71.05339774725117,42.32361243523727],[-71.05359235051648,42.323806432031986],[-71.05377119982482,42.323950561050125],[-71.05405958437498,42.32417081723361],[-71.05447069873175,42.324499125021596],[-71.05490347438861,42.32480161451907],[-71.05515190480877,42.324977885786915],[-71.05548316253987,42.32521025657876],[-71.05572901042041,42.32537257277758]]},"properties":{"route":"B - Braintree  C - Alewife","grade":4}},{"type":"Feature","geometry":{"type":"LineString","coordinates":[[-71.0360204841144,42.28338377145895],[-71.03770832001209,42.28490293607093],[-71.0382124369987,42.28534809523161],[-71.03897190698042,42.28603170855601]]},"properties":{"route":"B - Braintree  C - Alewife","grade":4}},{"type":"Feature","geometry":{"type":"LineString","coordinates":[[-71.00170310499634,42.20754590260191],[-71.00163450118113,42.20798255302444],[-71.00156053125858,42.20831232814864],[-71.00152025496526,42.208530687214456],[-71.00148866025432,42.20874718970557],[-71.00130429055295,42.20994174286842],[-71.00112808824301,42.21094915614037],[-71.00102710387407,42.211638028661774],[-71.00067188807637,42.21392498639378],[-71.00050880589482,42.21497708585569],[-71.0003547987003,42.2160534250291],[-71.00022711361814,42.21688622669955],[-71.00014503430944,42.21768147458466],[-71.00012659536642,42.21801850187165],[-71.00013997060634,42.21832376400085],[-71.00016310457582,42.21855083804983],[-71.00019486987493,42.21873780082872],[-71.00025106477422,42.21898663370865],[-71.00030961225785,42.219201508638875],[-71.00054899932206,42.219928241580874],[-71.00061005155617,42.2200890837472],[-71.00066703967934,42.220237559411025],[-71.00074535613616,42.22040873305316],[-71.00080630519079,42.22052772871034],[-71.00084890469486,42.22061972407125],[-71.00094929067748,42.22079771893815],[-71.00109818988865,42.22103425991424],[-71.00121815103073,42.22119856654821],[-71.00146907324155,42.22153952916434],[-71.00196655855842,42.22219484731708],[-71.00230356036228,42.22266260072514],[-71.00262170547508,42.22315189160865],[-71.00305956765983,42.22386305864853],[-71.00352974680418,42.22458366128454],[-71.00402551430616,42.22533658042912],[-71.00444846340335,42.225976084905405],[-71.00497252977867,42.22676697573353],[-71.00545097874542,42.22749998226894],[-71.00577668950018,42.22801065280225],[-71.00595722326729,42.22830479591385],[-71.00610892779595,42.228564841173565],[-71.00620929176816,42.22874901254889],[-71.00631985381011,42.2289579315081],[-71.00641594979251,42.2291559780244],[-71.00652217673772,42.229388036088146],[-71.00660994598483,42.22958913470634],[-71.00673224303345,42.22989229127105],[-71.00681572525748,42.230110353967326],[-71.0069390219502,42.23049270287197],[-71.00699817341007,42.23069323163606],[-71.00703638362015,42.230855521277434],[-71.0070663078513,42.23101468182352],[-71.00708964542473,42.23122013538363],[-71.00711076622211,42.231442567493225],[-71.00712603149259,42.23161710188672],[-71.0071288433136,42.231790044152106],[-71.00712936023037,42.231990772942844],[-71.0071191998723,42.23222850751734],[-71.00710717336112,42.23250446602311],[-71.00709510816942,42.23260107763037],[-71.0068234761973,42.23384412154828],[-71.0067996592974,42.2339610621757],[-71.00678553246661,42.23402514903279],[-71.00663967064904,42.234694696218575],[-71.0066361656973,42.2347076205023],[-71.00660553720692,42.234824531794494],[-71.00635436852352,42.23584137122048],[-71.00616592271714,42.236557439272374],[-71.0060338789158,42.23708017809971],[-71.00587456259247,42.23770071230964],[-71.0057728646937,42.23809472454553],[-71.00566334911713,42.23851908866413],[-71.0054480632853,42.239349829026864],[-71.00525083998582,42.24012043541968],[-71.00488009805143,42.24155821648344],[-71.00434256344592,42.24367164139524],[-71.00409991039214,42.244618680148264],[-71.00397642491576,42.24521914741425],[-71.00383230639743,42.2459266951904],[-71.0036136549095,42.24712144175199],[-71.00354240266934,42.247551919775425],[-71.00352596812172,42.247742718989265],[-71.00352252112607,42.247923783441024],[-71.00353163283566,42.248080881807574],[-71.00355725378694,42.24825855442141],[-71.00358385022898,42.24839896272582],[-71.00366108108892,42.24864936347399],[-71.00372739923155,42.24882285624841],[-71.0037916244821,42.24895462746917],[-71.00385564426674,42.24908729267406],[-71.00416685876277,42.24966247768235],[-71.00424342573395,42.24980398660267],[-71.00436025859243,42.250011388636985],[-71.00476254789064,42.25065697705182],[-71.00511763223234,42.25122670620373],[-71.00519563650299,42.25135056186995],[-71.00605727044534,42.25279174978121],[-71.00616609526615,42.25296205845556],[-71.00625432792606,42.25310757206303],[-71.00635300293746,42.25324695704626],[-71.00647646870185,42.253404979655514],[-71.00661459500256,42.25354916698906],[-71.00786905340527,42.2547295388344],[-71.01285854367123,42.25941218227624],[-71.01386352377548,42.26035828292079],[-71.01484788199942,42.26128731106883],[-71.01652813990097,42.262887109832405],[-71.01877522181515,42.265012138745455],[-71.01953013785794,42.26577689679662],[-71.02119597506248,42.267324770594385],[-71.02243267372214,42.26845086544901],[-71.02324490535403,42.26921026722812],[-71.02428856953213,42.270177044899896],[-71.02591933200247,42.27173207792727],[-71.02720068402161,42.272950523599356],[-71.02864708642315,42.27428830072508],[-71.029470422054,42.27505363558886],[-71.03005421824838,42.275614941605376],[-71.03079862895173,42.276323176531925],[-71.03134157227781,42.276847192782306],[-71.03150770166403,42.277042182162745],[-71.03162705597461,42.277202045016345],[-71.03175505274791,42.2773859640812],[-71.03190896133079,42.277644215360795],[-71.03206829802166,42.27796362211436],[-71.03221555082031,42.27832664431967],[-71.0323771400226,42.27873993841645],[-71.0324520272388,42.27894983573507],[-71.03281373810213,42.27983005334392],[-71.0328974520307,42.28000752564289],[-71.0329629392522,42.28014984059554],[-71.03304290906868,42.28030147944385],[-71.03312699213721,42.280459307454336],[-71.03325645245982,42.280666729544386],[-71.03342250681352,42.28090780235054],[-71.03356449234848,42.281096888876434],[-71.0337266659256,42.281290494780905],[-71.0339844730782,42.28156595454109],[-71.03441643869257,42.28197646891816],[-71.03536678181943,42.282791101601504],[-71.03596277770822,42.283331830158495],[-71.0360204841144,42.28338377145895]]},"properties":{"route":"B - Braintree  C - Alewife","grade":1}},{"type":"Feature","geometry":{"type":"LineString","coordinates":[[-71.08996136055045,42.26790751137746],[-71.08971942357972,42.26792067945251],[-71.0894998508828,42.26792893386414],[-71.08921387036456,42.26792791125778],[-71.0890872066112,42.267920557259906],[-71.08893979976965,42.267911663177216],[-71.08880214524966,42.26789371433306],[-71.08864161029142,42.26787074158645],[-71.08848084733972,42.267839033026405],[-71.08825647869976,42.267790901497946],[-71.08792068488198,42.26772070568457],[-71.08755379792775,42.26763935316055],[-71.0872054188783,42.26756171132929],[-71.08687069030417,42.26748745047925],[-71.0865106529278,42.267425852167044],[-71.08624565907148,42.267401827370065],[-71.08603226242083,42.267393180640504],[-71.08576711804128,42.267392224549475],[-71.08555873835456,42.267399350400005],[-71.08525890193324,42.26743146583305],[-71.0851002464186,42.267461145738494],[-71.08489345380335,42.26750442432405],[-71.08451048110939,42.267593069114085],[-71.08408116505305,42.26770180349233],[-71.08290161753003,42.267987310690586],[-71.08237215419761,42.26811649180136],[-71.08181686668033,42.26825570759116],[-71.08095461484844,42.2684731423366],[-71.07950239743474,42.26882964393603],[-71.07772083972195,42.269264256198845],[-71.07733802408089,42.2693551266583],[-71.07672407077885,42.26951210807551],[-71.07621357579168,42.26963345757584],[-71.07592033764614,42.26969652195708],[-71.07566699015005,42.26974172775776],[-71.07517748626819,42.26981137538635],[-71.07483386365948,42.2698512396702],[-71.07427895086163,42.26991892711858],[-71.07300639154518,42.27006135335699],[-71.07176918608617,42.27020160786498],[-71.0714177452106,42.27024418412465],[-71.07103247395189,42.27028212061392],[-71.07064481629789,42.270301147650606],[-71.06751164080015,42.27032703307464],[-71.06714490316608,42.27033893182924],[-71.06685248735337,42.27037989616529],[-71.06659286377545,42.27042098351613],[-71.06631683557161,42.270481322619425],[-71.0659005999227,42.270605632770774],[-71.0653921087146,42.2707706868424],[-71.06516843456667,42.270847543868356],[-71.06497460780005,42.2709141834011],[-71.0647256299411,42.27102055481111],[-71.06443578819746,42.2711585965598],[-71.06412179390165,42.271341801642734],[-71.06304016368335,42.27205916317133],[-71.06260453259543,42.27233286645467],[-71.06213603273868,42.27265516197948],[-71.06143082155566,42.27313651302137],[-71.06087675348967,42.27351027846725],[-71.0599492813771,42.27413737813181],[-71.05959830273154,42.27437000542134],[-71.05951487192661,42.27444566955311],[-71.05936788982387,42.274575731235046],[-71.05927479448938,42.27467278811124],[-71.05918459215047,42.274783145440566],[-71.0590973217869,42.274900151913734],[-71.05900375501434,42.2750658434291],[-71.05894919708444,42.2751940428542],[-71.05890067213302,42.275313414507764],[-71.05884847674801,42.275530186103246],[-71.05883535152397,42.275702824372516],[-71.05883451888162,42.27582237916883],[-71.0588514653366,42.27595749562508],[-71.05888296087404,42.27614359468432],[-71.05892063805473,42.2762987172188],[-71.05897606381792,42.27647383616842],[-71.05957507836324,42.278053140649035],[-71.05965478649453,42.27826444016935],[-71.05986952662586,42.278751037690576],[-71.0599723662468,42.27896840451995],[-71.06006651859946,42.27914809528743],[-71.06015193157398,42.27929897603072],[-71.06026010591306,42.279458240164686],[-71.06047033164218,42.27978528227395],[-71.06065938920271,42.280066147358646],[-71.06113457390902,42.28076618324565],[-71.0614825985464,42.28128657719002],[-71.06226737028929,42.28247634379408],[-71.06247542602863,42.28279787012516],[-71.0627286329579,42.28317589101361],[-71.06290491428545,42.28344730071536],[-71.06293778684532,42.28348741823821],[-71.06299538649291,42.28354609597773],[-71.06343073209578,42.28389220528246]]},"properties":{"route":"Mattapan Trolley","grade":3}},{"type":"Feature","geometry":{"type":"LineString","coordinates":[[-71.06619309188308,42.297400390437744],[-71.06619287867287,42.29740088840006],[-71.06603270807935,42.2976710304818],[-71.06586708154671,42.297911773959086],[-71.0656873017971,42.298154561394874],[-71.06545378272976,42.29840134071506],[-71.06518063116548,42.298654265385906],[-71.06499020870856,42.298800464857045],[-71.06465501603275,42.29903006872001],[-71.06439383492392,42.29918649029205],[-71.06418669114386,42.299296946969065],[-71.06390022276884,42.29943018235831],[-71.06366491728554,42.299523738772464],[-71.06344951484222,42.29960057699749],[-71.06314069051176,42.29969595068752],[-71.06274415768189,42.29979938331406],[-71.06130534788265,42.300169594767866],[-71.06103629879726,42.30023572791836],[-71.06082396388742,42.30027689128613],[-71.06059478754258,42.30030120192791],[-71.06039962589111,42.300313048834276],[-71.06000653747681,42.30032623894609],[-71.05951736047943,42.300334855874475],[-71.05844852388239,42.300342881330465],[-71.05803708948677,42.30036004196049],[-71.05786486230336,42.30037216184301],[-71.05766024779305,42.30040012364387],[-71.05745556730398,42.30043767304348],[-71.0572301275145,42.300497434463004],[-71.05704968494835,42.30055751116687],[-71.05690358919719,42.30061096688173],[-71.05673590623955,42.3006896592278],[-71.05659684289124,42.300768213293885],[-71.05649062348209,42.30083501088626],[-71.05633241426655,42.30094217164972],[-71.05620884534216,42.30104497979001],[-71.05611345362654,42.301140199973375],[-71.05604923849629,42.301221259050195],[-71.05597747537198,42.301323166924625],[-71.05592555613893,42.30141013261112],[-71.0558874732962,42.30149349202663],[-71.05586330344326,42.30156371668543],[-71.05584288634267,42.301660332889995],[-71.05582635211758,42.301767210435],[-71.05581758593154,42.30189170270111],[-71.05582757403985,42.30271800227649],[-71.05584007462883,42.302905571735984],[-71.05583304150193,42.303063767163586],[-71.0558179674271,42.303243905163875],[-71.05577484989277,42.30348253177062],[-71.0557259616669,42.30369916598063],[-71.05566516057002,42.303926006728986],[-71.0553974056478,42.30495779409841],[-71.05509949452319,42.30606711667749],[-71.05484587085695,42.30705061722735],[-71.05457548609029,42.308171757584205],[-71.0545185948011,42.3084030097721],[-71.05440894701441,42.30883915396004],[-71.0543601634038,42.30903967330786],[-71.05431177867692,42.30918452048729],[-71.05417905526755,42.30953267585701],[-71.05413888198866,42.309632140949674],[-71.05396822585308,42.31004167720418],[-71.05370555217635,42.31062519271989],[-71.05353135018956,42.31097758323601],[-71.05336531917526,42.31129044693433],[-71.05325694600783,42.311496514048955],[-71.05313688581633,42.31177447319595],[-71.05267318565618,42.312871420611685],[-71.05248016840491,42.313370237480584],[-71.0524135306154,42.31358239922428],[-71.05236279029135,42.31377997766728],[-71.05225686370726,42.31424397116897],[-71.0522156597733,42.31448846618265],[-71.05218602263469,42.31477109521907],[-71.05217418455953,42.31504940012795],[-71.05216880482607,42.315251549538566],[-71.052169349469,42.315453721125635],[-71.05225879874399,42.317598829296145],[-71.05226908180397,42.31843963881569],[-71.05228686369341,42.318793646200334],[-71.05233084743679,42.319194579255615],[-71.05253640493163,42.320354841986436],[-71.05261317451668,42.320944068408515],[-71.05269300885483,42.321908397010056],[-71.052713769672,42.32201008096294],[-71.052752178302,42.32217226519946],[-71.05279019002305,42.32226581994209],[-71.05283678478375,42.322377975811335],[-71.05300804169045,42.32270566353674],[-71.05307360238284,42.32283097618341]]},"properties":{"route":"A - Ashmont  C - Alewife","grade":1}},{"type":"Feature","geometry":{"type":"LineString","coordinates":[[-71.06421324604523,42.2857489234519],[-71.06479335426492,42.28827162037504],[-71.0658715879467,42.29331658775465],[-71.06636550626546,42.29517635014739],[-71.06640337139474,42.29530268395908],[-71.06645117135452,42.295548862094876],[-71.06648191247622,42.29577261051771],[-71.06649995532378,42.29596596181678],[-71.06649624767645,42.296192774503446],[-71.06645782340382,42.29646258336296],[-71.06639996810286,42.29674190618422],[-71.06633983654359,42.29699636572818],[-71.06629056607649,42.297172481421946],[-71.06619309188308,42.297400390437744]]},"properties":{"route":"A - Ashmont  C - Alewife","grade":7}},{"type":"Feature","geometry":{"type":"LineString","coordinates":[[-71.06343073209578,42.28389220528246],[-71.06364926857218,42.28425464572097],[-71.06395609599801,42.284823432181405],[-71.0640335017258,42.28501447440238],[-71.06409818517675,42.28524853524972],[-71.06421324604523,42.2857489234519]]},"properties":{"route":"A - Ashmont  C - Alewife","grade":1}},{"type":"Feature","geometry":{"type":"LineString","coordinates":[[-71.09251296022784,42.267520534529346],[-71.09180053984298,42.2676491637185],[-71.09076772252773,42.26783385985994],[-71.09056824304304,42.26785894891354],[-71.09023704536631,42.267890491063774],[-71.08996136297473,42.26790751138614],[-71.08996136055045,42.26790751137746]]},"properties":{"route":"Mattapan Trolley","grade":1}},{"type":"Feature","geometry":{"type":"LineString","coordinates":[[-71.05209997484457,42.31776260686652],[-71.05210718062179,42.318032991155874],[-71.0521326132743,42.318554248140806],[-71.05214186113822,42.319028821820524],[-71.05216327833651,42.31940407779484],[-71.05221390485346,42.319734187721124],[-71.0523034305133,42.32023714801021],[-71.05246151992272,42.321616643719466],[-71.05251672516847,42.32179257888614],[-71.0525607755047,42.321950152225995],[-71.05259341660629,42.322065254577765],[-71.05276102637995,42.32254017676984],[-71.05285602256438,42.32277362634722],[-71.05289893348815,42.3228591379296]]},"properties":{"route":"B - Braintree  C - Alewife","grade":1}},{"type":"Feature","geometry":{"type":"LineString","coordinates":[[-71.05192859200965,42.31455974762045],[-71.05190943967706,42.314816933581916],[-71.05190266179967,42.31495840094824],[-71.05190323125605,42.31514992030424],[-71.05191679666336,42.31541009224825],[-71.05193066443793,42.31562738949149],[-71.05202746257147,42.31653580432597],[-71.05206589267945,42.31696373221859],[-71.05208446551416,42.31740769802518],[-71.0520949104771,42.3176055155462],[-71.05209997484457,42.31776260686652]]},"properties":{"route":"B - Braintree  C - Alewife","grade":4}}]}